{
  "type": "FeatureCollection",
  "features": [
    {
      "type": "Feature",
      "geometry": {
        "type": "Polygon",
        "coordinates": [
          [
            [
              -111.34186862544307,
              33.17679097591092
            ],
            [
              -111.36698343540279,
              33.245794715797935
            ],
            [
              -111.3678675076411,
              33.293434492305586
            ],
            [
              -111.3522390832778,
              33.33923730906722
            ],
            [
              -111.32142176547882,
              33.37925307096888
            ],
            [
              -111.29369552584068,
              33.40097874620509
            ],
            [
              -111.26143651691334,
              33.41774166558307
            ],
            [
              -111.20730527363418,
              33.43222380460595
            ],
            [
              -111.15048591505429,
              33.43288080537203
            ],
            [
              -111.11354571351175,
              33.425559924244055
            ],
            [
              -111.07902811880993,
              33.4123270400942
            ],
            [
              -111.04826487548353,
              33.39369319027355
            ],
            [
              -111.02244071631486,
              33.37037761270495
            ],
            [
              -110.98667035753215,
              33.322159701387534
            ],
            [
              -110.96154815908753,
              33.27399502422141
            ],
            [
              -110.92616223801195,
              33.26740512831447
            ],
            [
              -110.89160970597815,
              33.25472131609834
            ],
            [
              -110.84984658162753,
              33.22889328608025
            ],
            [
              -110.82357246290988,
              33.205974036788895
            ],
            [
              -110.80313556993283,
              33.179182822848354
            ],
            [
              -110.78506605291797,
              33.13402554282624
            ],
            [
              -110.77934039651802,
              33.06536281237317
            ],
            [
              -110.78147310908663,
              33.01524247671878
            ],
            [
              -110.66891299722256,
              32.936971333068485
            ],
            [
              -110.62409764410684,
              32.893941638274136
            ],
            [
              -110.58198424794989,
              32.836172260975054
            ],
            [
              -110.57062988268197,
              32.8048038901666
            ],
            [
              -110.56392683288185,
              32.74340284881808
            ],
            [
              -110.52437397471954,
              32.65056897858706
            ],
            [
              -110.51801196751511,
              32.62080132566129
            ],
            [
              -110.51828690789219,
              32.59055160598658
            ],
            [
              -110.52619571713234,
              32.55284852830642
            ],
            [
              -110.5457268355238,
              32.50695278259544
            ],
            [
              -110.51654598033305,
              32.4689019744412
            ],
            [
              -110.48935956640386,
              32.45909450271017
            ],
            [
              -110.45843805697085,
              32.44176351914717
            ],
            [
              -110.42086562420049,
              32.407147273213845
            ],
            [
              -110.40023350903338,
              32.38013354668156
            ],
            [
              -110.3857048787574,
              32.35140297822189
            ],
            [
              -110.37669103685246,
              32.305226324223916
            ],
            [
              -110.38363909948515,
              32.254031875183934
            ],
            [
              -110.39382587883173,
              32.22303796646702
            ],
            [
              -110.42199404187362,
              32.18124166222838
            ],
            [
              -110.45142745647817,
              32.15604959376696
            ],
            [
              -110.43112826986506,
              32.107271840881644
            ],
            [
              -110.4271697521831,
              32.0756270041838
            ],
            [
              -110.4305359272579,
              32.0439324577051
            ],
            [
              -110.46330249888167,
              31.9658185663069
            ],
            [
              -110.48280394538222,
              31.869573046500484
            ],
            [
              -110.50690632807314,
              31.827394131403196
            ],
            [
              -110.53404873926074,
              31.796097936779617
            ],
            [
              -110.54193962289555,
              31.762393744280054
            ],
            [
              -110.53985043320213,
              31.724008697484383
            ],
            [
              -110.54722791572289,
              31.69042042345718
            ],
            [
              -110.52993535309078,
              31.67282728986432
            ],
            [
              -110.4920876914555,
              31.66472053018656
            ],
            [
              -110.45940024186116,
              31.651312386872423
            ],
            [
              -110.39826299073331,
              31.60883612109512
            ],
            [
              -110.33744758474545,
              31.59735134279621
            ],
            [
              -110.28685084552313,
              31.575759148810793
            ],
            [
              -110.24596242326889,
              31.542348146827884
            ],
            [
              -110.21945407676343,
              31.502148525969666
            ],
            [
              -110.1857619858602,
              31.474842462003455
            ],
            [
              -110.16286567191437,
              31.44450940012738
            ],
            [
              -110.14999961721902,
              31.41625718433509
            ],
            [
              -110.14263705812125,
              31.371178142952793
            ],
            [
              -110.15629605777178,
              31.29328891664221
            ],
            [
              -110.17013411838688,
              31.263754948158216
            ],
            [
              -110.19040400468846,
              31.237104112781818
            ],
            [
              -110.21632402186235,
              31.214357761498142
            ],
            [
              -110.26356975764402,
              31.189415330560312
            ],
            [
              -110.31718798435726,
              31.177314278488126
            ],
            [
              -110.35421425175774,
              31.17694205739845
            ],
            [
              -110.40814712337675,
              31.187962161941176
            ],
            [
              -110.44102579156416,
              31.20261827214745
            ],
            [
              -110.47711930398317,
              31.22911548455704
            ],
            [
              -110.51763854011746,
              31.250339019868793
            ],
            [
              -110.53686036649482,
              31.26591562997356
            ],
            [
              -110.57309333503004,
              31.280791899179423
            ],
            [
              -110.60207619988434,
              31.299797723625524
            ],
            [
              -110.62628459876585,
              31.323222074317002
            ],
            [
              -110.64865328444805,
              31.356274258855322
            ],
            [
              -110.71404785990896,
              31.373532855317308
            ],
            [
              -110.76211738797804,
              31.398607529663693
            ],
            [
              -110.80931286876167,
              31.43400424526886
            ],
            [
              -110.83912034754562,
              31.46310755151928
            ],
            [
              -110.87808649745706,
              31.48898218407599
            ],
            [
              -110.91493476870436,
              31.522383244176037
            ],
            [
              -110.93941334007049,
              31.547705745643807
            ],
            [
              -110.95744802085086,
              31.57672859494208
            ],
            [
              -110.96829532123353,
              31.608265300990052
            ],
            [
              -110.97150400123017,
              31.641025394146613
            ],
            [
              -110.9634247867119,
              31.68445795839825
            ],
            [
              -110.9690256655513,
              31.770619105796364
            ],
            [
              -110.96459575541962,
              31.80162297457301
            ],
            [
              -110.94518324011072,
              31.845346927448706
            ],
            [
              -110.90504149843588,
              31.89154163459324
            ],
            [
              -110.89318097610045,
              31.930260783512715
            ],
            [
              -110.86681379615314,
              31.972203892135344
            ],
            [
              -110.86068457804372,
              32.01079872105341
            ],
            [
              -110.90005164357828,
              32.05184365288101
            ],
            [
              -110.91501698097856,
              32.08023264667012
            ],
            [
              -110.92335496152695,
              32.110530267032395
            ],
            [
              -110.92869808087926,
              32.231040377858776
            ],
            [
              -110.92251651720176,
              32.26312506157198
            ],
            [
              -110.90584092246367,
              32.29817211586382
            ],
            [
              -110.91575472078723,
              32.33933886582685
            ],
            [
              -110.93988824783395,
              32.37448878522308
            ],
            [
              -110.95381862340656,
              32.404663891678005
            ],
            [
              -110.96086722530355,
              32.45280381827513
            ],
            [
              -110.9585146418312,
              32.498797829266294
            ],
            [
              -110.94698593832194,
              32.536899045630946
            ],
            [
              -110.94846641715965,
              32.57609384507071
            ],
            [
              -110.93403731305499,
              32.624679634472734
            ],
            [
              -110.94188807927335,
              32.64411144686366
            ],
            [
              -110.95342125805469,
              32.702151469068745
            ],
            [
              -111.01841788045009,
              32.751859231655025
            ],
            [
              -111.07523459345757,
              32.78230065265511
            ],
            [
              -111.11896136697213,
              32.82204350872533
            ],
            [
              -111.13953076957921,
              32.85078379505544
            ],
            [
              -111.1526681564624,
              32.88247947937555
            ],
            [
              -111.1574184594706,
              32.91159086690682
            ],
            [
              -111.18374467191919,
              32.951791063312385
            ],
            [
              -111.24679444404428,
              32.974940087890104
            ],
            [
              -111.2776515401726,
              32.99508670009046
            ],
            [
              -111.30307130049356,
              33.02005586541185
            ],
            [
              -111.32200899037751,
              33.04882612962653
            ],
            [
              -111.33368269657524,
              33.08021952613524
            ],
            [
              -111.34186862544307,
              33.17679097591092
            ]
          ]
        ]
      },
      "properties": {
        "buffer_km": 18.0,
        "buffer_meters": 18000.0,
        "route_points": 9931
      }
    }
  ]
}