{
  "type": "FeatureCollection",
  "features": [
    {
      "type": "Feature",
      "geometry": {
        "type": "Polygon",
        "coordinates": [
          [
            [
              20.45391053707755,
              39.91917747591842
            ],
            [
              20.443857705081747,
              39.96609420598768
            ],
            [
              20.446680392509986,
              39.99821343304642
            ],
            [
              20.45770280517661,
              40.029270134956185
            ],
            [
              20.476500580655568,
              40.058038350912966
            ],
            [
              20.52535578553898,
              40.11590389240946
            ],
            [
              20.552062245731005,
              40.13786038685305
            ],
            [
              20.632603350694662,
              40.18324204067786
            ],
            [
              20.70757641337792,
              40.21197347770236
            ],
            [
              20.724239552173565,
              40.23490384104881
            ],
            [
              20.745436863652255,
              40.25484424062121
            ],
            [
              20.757921817096673,
              40.2847940338421
            ],
            [
              20.783494975027402,
              40.31805327596831
            ],
            [
              20.78935413917116,
              40.33893142080681
            ],
            [
              20.818741430561214,
              40.39664691174423
            ],
            [
              20.857339886938856,
              40.451784085816996
            ],
            [
              20.892683898103943,
              40.486092752627606
            ],
            [
              20.930217794707744,
              40.51279048284973
            ],
            [
              20.958113822351773,
              40.52698473620997
            ],
            [
              21.016011240551855,
              40.5849802625201
            ],
            [
              21.020631180037626,
              40.61873282456505
            ],
            [
              21.044804412196168,
              40.675913714651664
            ],
            [
              21.066255240997453,
              40.70356615734728
            ],
            [
              21.09446414577823,
              40.72745245033365
            ],
            [
              21.282590100372587,
              40.83785362228089
            ],
            [
              21.314758006698835,
              40.8834026867415
            ],
            [
              21.41658553496056,
              40.96063339447641
            ],
            [
              21.472648322560925,
              40.98402558139874
            ],
            [
              21.508961416683654,
              41.003744495682454
            ],
            [
              21.539835496749284,
              41.014406634820226
            ],
            [
              21.6271639152166,
              41.063600701590154
            ],
            [
              21.66496025083591,
              41.0792079556873
            ],
            [
              21.72746123014955,
              41.09114620441663
            ],
            [
              21.8215374241757,
              41.09067460367556
            ],
            [
              21.86341444777319,
              41.08208839599997
            ],
            [
              21.916983436425355,
              41.061760371496476
            ],
            [
              21.965250313833863,
              41.03185844398983
            ],
            [
              22.0180162211422,
              40.970159197865186
            ],
            [
              22.032160183799384,
              40.94076669753158
            ],
            [
              22.038586741035974,
              40.90986126461564
            ],
            [
              22.033337198047548,
              40.863190813959044
            ],
            [
              21.997309475067933,
              40.793412857596365
            ],
            [
              21.972876156763743,
              40.767260021447235
            ],
            [
              21.912932246409756,
              40.721284572048404
            ],
            [
              21.87974895945898,
              40.70197742681716
            ],
            [
              21.842269891852396,
              40.68795568342196
            ],
            [
              21.80192822288935,
              40.67975486087666
            ],
            [
              21.760264271514075,
              40.67768806933596
            ],
            [
              21.718867807442408,
              40.681834282194146
            ],
            [
              21.68066118724588,
              40.69163245354073
            ],
            [
              21.65817001298684,
              40.642980440232066
            ],
            [
              21.624292173466767,
              40.60298194319849
            ],
            [
              21.593840768639204,
              40.58124672039567
            ],
            [
              21.518591496297105,
              40.54948132078914
            ],
            [
              21.503509429609085,
              40.538906106450135
            ],
            [
              21.50591001958448,
              40.4967422711882
            ],
            [
              21.49781902468767,
              40.464922598819726
            ],
            [
              21.48161469453179,
              40.43496544732911
            ],
            [
              21.45795289335305,
              40.40806453566688
            ],
            [
              21.42778345905407,
              40.38529050559467
            ],
            [
              21.396063213095957,
              40.36845591653386
            ],
            [
              21.35957329094771,
              40.353844219680816
            ],
            [
              21.322923537196516,
              40.344824705694315
            ],
            [
              21.30480712067522,
              40.33423347558895
            ],
            [
              21.27664401019798,
              40.301731606133814
            ],
            [
              21.225287705614143,
              40.26710582704863
            ],
            [
              21.21188983777675,
              40.248888870543766
            ],
            [
              21.171655255820326,
              40.127484645655805
            ],
            [
              21.15464227009023,
              40.09816704251479
            ],
            [
              21.11852100781892,
              40.06244853353538
            ],
            [
              21.119211037075853,
              40.017512935063934
            ],
            [
              21.112012153681768,
              39.99091811660288
            ],
            [
              21.132121158076732,
              39.98412254718055
            ],
            [
              21.162180184520576,
              39.98191533097666
            ],
            [
              21.202122797334436,
              39.973270394494655
            ],
            [
              21.257227216854304,
              39.94979391962097
            ],
            [
              21.306187801693387,
              39.91624709962181
            ],
            [
              21.36360834286386,
              39.85429242478439
            ],
            [
              21.387346230979574,
              39.80938539776803
            ],
            [
              21.392788729848203,
              39.76107405848671
            ],
            [
              21.38596160489242,
              39.72910885251996
            ],
            [
              21.37105213064264,
              39.69882728557137
            ],
            [
              21.34866378989519,
              39.67143470953337
            ],
            [
              21.318845094043628,
              39.6450963489126
            ],
            [
              21.335114017979738,
              39.61331580323199
            ],
            [
              21.34251723763758,
              39.573182742167425
            ],
            [
              21.368799898564504,
              39.53089727517325
            ],
            [
              21.41248786689687,
              39.5055322211357
            ],
            [
              21.43884061543509,
              39.481525145138235
            ],
            [
              21.454175363158743,
              39.46105713394399
            ],
            [
              21.519541453471565,
              39.449362793804205
            ],
            [
              21.55740899847091,
              39.43512663742347
            ],
            [
              21.638685279378958,
              39.38690272311568
            ],
            [
              21.665524492332185,
              39.3632425407988
            ],
            [
              21.69349484753585,
              39.321345655695985
            ],
            [
              21.70976127823259,
              39.27500382150495
            ],
            [
              21.711222608098662,
              39.243027187486405
            ],
            [
              21.701854760856673,
              39.192031618279174
            ],
            [
              21.701639100899232,
              39.16703768753689
            ],
            [
              21.70821616839813,
              39.15969899342332
            ],
            [
              21.768852217870226,
              39.16979955874637
            ],
            [
              21.809515492903817,
              39.170511623848085
            ],
            [
              21.849577017651033,
              39.1650468965753
            ],
            [
              21.88750035821139,
              39.15361510280067
            ],
            [
              21.921832737067735,
              39.13665468286912
            ],
            [
              21.98364164200673,
              39.090714144725396
            ],
            [
              22.00739753218206,
              39.06416852721688
            ],
            [
              22.023795816056147,
              39.03670112165792
            ],
            [
              22.039674255731306,
              38.99000223548101
            ],
            [
              22.039329679335367,
              38.95349927012341
            ],
            [
              22.063957638898128,
              38.91134844309826
            ],
            [
              22.071487285088832,
              38.87941654046987
            ],
            [
              22.073159460210707,
              38.854667145431755
            ],
            [
              22.06528591444232,
              38.78956898179563
            ],
            [
              22.055616258184813,
              38.75946654797683
            ],
            [
              22.027916379463708,
              38.71837071559792
            ],
            [
              21.986512451990396,
              38.68510030148494
            ],
            [
              21.939688732714497,
              38.66406356632917
            ],
            [
              21.937302464461077,
              38.641006914149784
            ],
            [
              21.92583450642463,
              38.60798584302124
            ],
            [
              21.9261939804114,
              38.60186168553477
            ],
            [
              21.954952592593667,
              38.55885567602
            ],
            [
              22.022288096349012,
              38.471358598432204
            ],
            [
              22.04214509423296,
              38.414203807551566
            ],
            [
              22.043847120709323,
              38.38243437004569
            ],
            [
              22.037644622772053,
              38.351013727245885
            ],
            [
              22.023785621894408,
              38.321148015233106
            ],
            [
              21.98989769066794,
              38.281742254642595
            ],
            [
              21.959843876919678,
              38.2605336146525
            ],
            [
              21.90644480510108,
              38.238334588388824
            ],
            [
              21.867286143255402,
              38.230769205605526
            ],
            [
              21.827011650716088,
              38.2293611563211
            ],
            [
              21.776586604377062,
              38.235460852248345
            ],
            [
              21.720138140946982,
              38.25429494342937
            ],
            [
              21.687507908693554,
              38.27381202347694
            ],
            [
              21.62257744355536,
              38.33920549339332
            ],
            [
              21.603237110409363,
              38.365832387737186
            ],
            [
              21.591512050496302,
              38.39237227341551
            ],
            [
              21.570688799003225,
              38.41856468426319
            ],
            [
              21.518158709475056,
              38.46008104149904
            ],
            [
              21.492565337510108,
              38.48534207162141
            ],
            [
              21.473828841750404,
              38.5140845912217
            ],
            [
              21.462698166292878,
              38.545172745647584
            ],
            [
              21.45962369204599,
              38.57737649030323
            ],
            [
              21.46473795414824,
              38.60942000434493
            ],
            [
              21.477848717360786,
              38.64003216095644
            ],
            [
              21.49138911863262,
              38.65943543057891
            ],
            [
              21.46200784720895,
              38.71921159849063
            ],
            [
              21.458408019747864,
              38.765721430584485
            ],
            [
              21.468612706277383,
              38.80490883958709
            ],
            [
              21.488598253606813,
              38.8414776935556
            ],
            [
              21.420131959120457,
              38.86980581420277
            ],
            [
              21.376451333199114,
              38.9011526198079
            ],
            [
              21.354423632955452,
              38.92688607605253
            ],
            [
              21.34103669387961,
              38.951160585975295
            ],
            [
              21.30214552241671,
              38.9866481727484
            ],
            [
              21.28402827728958,
              39.01475755720113
            ],
            [
              21.257657466277685,
              39.075864454628764
            ],
            [
              21.253520295612443,
              39.119110747781846
            ],
            [
              21.21650725350474,
              39.1370058579354
            ],
            [
              21.187101204190068,
              39.158786961914515
            ],
            [
              21.124959536122493,
              39.22449485366447
            ],
            [
              21.10221006696428,
              39.266214816313905
            ],
            [
              21.060840548497637,
              39.283086336759474
            ],
            [
              21.01657057772829,
              39.31475678297155
            ],
            [
              20.985730325711533,
              39.35491313949137
            ],
            [
              20.9726903476405,
              39.39117717954358
            ],
            [
              20.939597537812332,
              39.41376899139968
            ],
            [
              20.91490606405288,
              39.439362460472175
            ],
            [
              20.89715042469483,
              39.46821105442212
            ],
            [
              20.887027086613205,
              39.49919757134845
            ],
            [
              20.884938851246105,
              39.53112052150084
            ],
            [
              20.89347937523097,
              39.56911492353116
            ],
            [
              20.879255252316852,
              39.61173805251035
            ],
            [
              20.878552261359616,
              39.67223164686401
            ],
            [
              20.803910601439277,
              39.68335648296218
            ],
            [
              20.760653864417275,
              39.70016875216962
            ],
            [
              20.64876849322616,
              39.7269076829821
            ],
            [
              20.612081056138585,
              39.74100571603875
            ],
            [
              20.57183236655433,
              39.766552589940844
            ],
            [
              20.5426826279738,
              39.77966612709717
            ],
            [
              20.49875295379051,
              39.81178551353061
            ],
            [
              20.476865596611898,
              39.83801149138379
            ],
            [
              20.45716041149265,
              39.88216223122315
            ],
            [
              20.45391053707755,
              39.91917747591842
            ]
          ]
        ]
      },
      "properties": {
        "name": "Route 18.0km Route Corridor",
        "buffer_km": 18.0,
        "buffer_meters": 18000.0,
        "point_count": 85172
      }
    }
  ]
}