{
  "type": "FeatureCollection",
  "features": [
    {
      "type": "Feature",
      "geometry": {
        "type": "Polygon",
        "coordinates": [
          [
            [
              -10.000548427914248,
              31.088838648509952
            ],
            [
              -9.9976299789201,
              31.129993725515323
            ],
            [
              -9.979468123030571,
              31.174398276186093
            ],
            [
              -9.985036346034407,
              31.24041286508033
            ],
            [
              -9.98336561240047,
              31.28658037129719
            ],
            [
              -9.978704247523137,
              31.307951931296156
            ],
            [
              -9.98579370448202,
              31.335862934182003
            ],
            [
              -9.986980794971913,
              31.365277341095233
            ],
            [
              -9.971771994835462,
              31.42739934164982
            ],
            [
              -9.952055198375923,
              31.46191765549601
            ],
            [
              -9.959319421422965,
              31.514945297964264
            ],
            [
              -9.954900795570701,
              31.54655314751468
            ],
            [
              -9.94336170422252,
              31.576814565185735
            ],
            [
              -9.92513958313478,
              31.60456491722708
            ],
            [
              -9.900930739749333,
              31.62873520555164
            ],
            [
              -9.871664211327486,
              31.648393539351233
            ],
            [
              -9.83846627191221,
              31.662781413708622
            ],
            [
              -9.802616916083027,
              31.671343328754702
            ],
            [
              -9.765500025391118,
              31.673748537342163
            ],
            [
              -9.72854923133221,
              31.669904022181758
            ],
            [
              -9.693191704017604,
              31.659958161360528
            ],
            [
              -9.64609790862595,
              31.634500187943384
            ],
            [
              -9.620427640511785,
              31.611457080008865
            ],
            [
              -9.600516265157307,
              31.584567674690703
            ],
            [
              -9.583045742390697,
              31.539318935594775
            ],
            [
              -9.55820976384508,
              31.412166952117385
            ],
            [
              -9.56213750009211,
              31.365072788762614
            ],
            [
              -9.57350544389071,
              31.335080987203863
            ],
            [
              -9.591390443339254,
              31.30755714420125
            ],
            [
              -9.579411460915033,
              31.264514267476265
            ],
            [
              -9.579587202446444,
              31.23234403545548
            ],
            [
              -9.589885215288374,
              31.194398863732452
            ],
            [
              -9.58949013500019,
              31.16866507154784
            ],
            [
              -9.601632390768042,
              31.118512928306522
            ],
            [
              -9.605464010367427,
              31.075428557781986
            ],
            [
              -9.615943671079165,
              31.04685289367907
            ],
            [
              -9.601577197681156,
              31.00649711096113
            ],
            [
              -9.5952944728972,
              30.949718052615122
            ],
            [
              -9.559743716645544,
              30.940874313881626
            ],
            [
              -9.528050230948804,
              30.926789558346396
            ],
            [
              -9.464483487409957,
              30.882523565537866
            ],
            [
              -9.439589212851967,
              30.85954979605392
            ],
            [
              -9.41300111009646,
              30.818440060253625
            ],
            [
              -9.40340838266729,
              30.788102518026164
            ],
            [
              -9.401388479478456,
              30.74944518590644
            ],
            [
              -9.379602459471396,
              30.705902214919185
            ],
            [
              -9.338514304101007,
              30.70068681963678
            ],
            [
              -9.250035050346849,
              30.67359544369716
            ],
            [
              -9.218479980968368,
              30.656616702471815
            ],
            [
              -9.179916055896742,
              30.621955335270233
            ],
            [
              -9.154806179494871,
              30.579041719279356
            ],
            [
              -9.145338278370959,
              30.53164686851002
            ],
            [
              -9.152320536450452,
              30.483930043638374
            ],
            [
              -9.174102030414366,
              30.433609254576247
            ],
            [
              -9.16302483595905,
              30.38947627805142
            ],
            [
              -9.115105627730383,
              30.349162939150798
            ],
            [
              -9.02529441336108,
              30.296673719943627
            ],
            [
              -8.997110873159496,
              30.27643560699543
            ],
            [
              -8.974013024070144,
              30.251821989036262
            ],
            [
              -8.95688173667152,
              30.223775870455835
            ],
            [
              -8.943726006739958,
              30.177645020155893
            ],
            [
              -8.94379612950435,
              30.1458981032833
            ],
            [
              -8.970915089338021,
              30.030368547146193
            ],
            [
              -8.983986872530759,
              30.000804292819733
            ],
            [
              -9.003393376180783,
              29.974007462445627
            ],
            [
              -9.02839377227159,
              29.950994514975402
            ],
            [
              -9.066798657799014,
              29.92874411999559
            ],
            [
              -9.044734568966977,
              29.91244199494558
            ],
            [
              -9.007420118476736,
              29.917212691985874
            ],
            [
              -8.975153063167028,
              29.916074581463302
            ],
            [
              -8.9203049510556,
              29.909192733297743
            ],
            [
              -8.886372579995284,
              29.89939746584435
            ],
            [
              -8.855218249654655,
              29.884132693614266
            ],
            [
              -8.827990336558008,
              29.863961824957855
            ],
            [
              -8.796209749381617,
              29.825343561686076
            ],
            [
              -8.7571933822051,
              29.84366058623278
            ],
            [
              -8.713952260508533,
              29.853073383094213
            ],
            [
              -8.704859998258854,
              29.936128783361777
            ],
            [
              -8.69010722949838,
              29.9688071585487
            ],
            [
              -8.661256712841563,
              30.015078543412653
            ],
            [
              -8.625806118878348,
              30.050017091581577
            ],
            [
              -8.586280341250093,
              30.072186151488037
            ],
            [
              -8.552672029317243,
              30.097483808607404
            ],
            [
              -8.520317712014345,
              30.112508858804347
            ],
            [
              -8.485203239336318,
              30.121738703139254
            ],
            [
              -8.448687944173384,
              30.12481598582032
            ],
            [
              -8.385123346491152,
              30.118607583597935
            ],
            [
              -8.338895027100856,
              30.10881009365073
            ],
            [
              -8.311722799433893,
              30.136564751001174
            ],
            [
              -8.284507824327221,
              30.1563082887825
            ],
            [
              -8.253483124266914,
              30.171223337424692
            ],
            [
              -8.227091820533843,
              30.179027428071745
            ],
            [
              -8.191825684558776,
              30.197092504696364
            ],
            [
              -8.112054257299475,
              30.226864217889656
            ],
            [
              -8.07328601768466,
              30.23387507811429
            ],
            [
              -8.029978797439565,
              30.236792547534797
            ],
            [
              -7.948052264644328,
              30.23602472879118
            ],
            [
              -7.871968821086477,
              30.219962358615973
            ],
            [
              -7.839716618175579,
              30.205454746067442
            ],
            [
              -7.811312875307079,
              30.185799529908948
            ],
            [
              -7.787830397723438,
              30.16174101973615
            ],
            [
              -7.774971994581458,
              30.142642959112095
            ],
            [
              -7.763641880071976,
              30.154975373213592
            ],
            [
              -7.7807423742885025,
              30.188152992408213
            ],
            [
              -7.7914705744764445,
              30.231882318157318
            ],
            [
              -7.782557643731528,
              30.31854600091216
            ],
            [
              -7.746694646516606,
              30.39973749159916
            ],
            [
              -7.717539414585505,
              30.453987555551688
            ],
            [
              -7.697329418245593,
              30.481104968186305
            ],
            [
              -7.667666815068897,
              30.51210521333391
            ],
            [
              -7.640145186957562,
              30.53209176950577
            ],
            [
              -7.591895589469118,
              30.55267331800707
            ],
            [
              -7.554659904703809,
              30.559529616549764
            ],
            [
              -7.528465249417148,
              30.587067790409698
            ],
            [
              -7.499656403424573,
              30.606801468790252
            ],
            [
              -7.403337925226734,
              30.64293980972226
            ],
            [
              -7.328561448966382,
              30.699658653144322
            ],
            [
              -7.28814368686313,
              30.722864525643097
            ],
            [
              -7.2370842022428725,
              30.770896786383354
            ],
            [
              -7.1929048145089975,
              30.799552873869256
            ],
            [
              -7.158873237794568,
              30.811910705228104
            ],
            [
              -7.104237372544583,
              30.819137036802143
            ],
            [
              -7.067477184625995,
              30.8161427715316
            ],
            [
              -7.018562217788427,
              30.801512981863798
            ],
            [
              -6.915623906754591,
              30.833284984113767
            ],
            [
              -6.881021489840529,
              30.83744491949303
            ],
            [
              -6.830080178878235,
              30.8333751882658
            ],
            [
              -6.819365863325382,
              30.835370610447583
            ],
            [
              -6.78395068414384,
              30.864448722311565
            ],
            [
              -6.735652985919942,
              30.888881767882687
            ],
            [
              -6.681144228094142,
              30.899955001072296
            ],
            [
              -6.632373706921648,
              30.89772052383682
            ],
            [
              -6.537683601167308,
              30.939606471536273
            ],
            [
              -6.502804108220543,
              30.94624017272775
            ],
            [
              -6.451914515006358,
              30.945545315830405
            ],
            [
              -6.445350937873917,
              30.983399216204894
            ],
            [
              -6.454908342616441,
              31.013097608075924
            ],
            [
              -6.458577184946236,
              31.045841231711858
            ],
            [
              -6.4495965769884105,
              31.09446786094311
            ],
            [
              -6.43430163153878,
              31.124615832051152
            ],
            [
              -6.383943612074737,
              31.187379589808803
            ],
            [
              -6.360479735725816,
              31.210811739224347
            ],
            [
              -6.324102597507733,
              31.236663222545786
            ],
            [
              -6.3076707175490725,
              31.29719853402802
            ],
            [
              -6.322002234883405,
              31.325915814017886
            ],
            [
              -6.329951939731972,
              31.360281312645974
            ],
            [
              -6.347998614800272,
              31.394413771065217
            ],
            [
              -6.356190734027948,
              31.43343557044916
            ],
            [
              -6.451541134918307,
              31.453296491178193
            ],
            [
              -6.485267552492582,
              31.466823951220267
            ],
            [
              -6.5152648927838195,
              31.485741117150393
            ],
            [
              -6.540374609774425,
              31.509319327319016
            ],
            [
              -6.564891465401144,
              31.54746249405264
            ],
            [
              -6.59324446575597,
              31.581183406862813
            ],
            [
              -6.6131205992005855,
              31.630661550852672
            ],
            [
              -6.616872553823472,
              31.66363608725321
            ],
            [
              -6.612716598368823,
              31.696575130171414
            ],
            [
              -6.600817919945812,
              31.728104976951798
            ],
            [
              -6.574648395169887,
              31.767413337629723
            ],
            [
              -6.533464847970059,
              31.80325823887442
            ],
            [
              -6.492217526027009,
              31.822922092730344
            ],
            [
              -6.478112651341201,
              31.846496176855712
            ],
            [
              -6.454810732351073,
              31.872059768923492
            ],
            [
              -6.426011619322738,
              31.89315814300473
            ],
            [
              -6.387772720219171,
              31.91057808167657
            ],
            [
              -6.381245681846005,
              31.928652050887386
            ],
            [
              -6.4282721260185705,
              31.958186866844898
            ],
            [
              -6.45333599737432,
              31.981185959854006
            ],
            [
              -6.482132269134462,
              32.02407424308143
            ],
            [
              -6.495444018043217,
              32.054319345963535
            ],
            [
              -6.501464236063676,
              32.08621070825266
            ],
            [
              -6.496366172992294,
              32.134366129419035
            ],
            [
              -6.483733830551606,
              32.16482603573712
            ],
            [
              -6.459890253230397,
              32.197544240571894
            ],
            [
              -6.490254793064113,
              32.226310318095685
            ],
            [
              -6.516883983306748,
              32.271173199202224
            ],
            [
              -6.527558370752683,
              32.31792383359644
            ],
            [
              -6.521792271264327,
              32.365293018131204
            ],
            [
              -6.500058174665631,
              32.40919801532297
            ],
            [
              -6.477560806963441,
              32.434649856173436
            ],
            [
              -6.449628388692637,
              32.455883662467855
            ],
            [
              -6.417335613192836,
              32.47208028679882
            ],
            [
              -6.376598550321708,
              32.48371611112785
            ],
            [
              -6.295913923982354,
              32.49411564566288
            ],
            [
              -6.257949946043193,
              32.49559615295642
            ],
            [
              -6.220392506997939,
              32.49068108402348
            ],
            [
              -6.1847290176276495,
              32.479565539128295
            ],
            [
              -6.152370545090569,
              32.46269003005985
            ],
            [
              -6.077622884278386,
              32.39745288046793
            ],
            [
              -6.0505645006652085,
              32.354996370205676
            ],
            [
              -6.040829767211824,
              32.319760916461085
            ],
            [
              -6.017209992787645,
              32.29299234120981
            ],
            [
              -6.001581864813036,
              32.26484236405298
            ],
            [
              -5.992575520151979,
              32.23467445814935
            ],
            [
              -5.991181201441307,
              32.189512334223984
            ],
            [
              -6.010806062167186,
              32.10110263183721
            ],
            [
              -5.974400675944352,
              32.05732026396334
            ],
            [
              -5.9567982657969445,
              32.02921617950634
            ],
            [
              -5.945989981715879,
              31.998723387975073
            ],
            [
              -5.94333769873716,
              31.95109369348335
            ],
            [
              -5.957034071423146,
              31.90486269381454
            ],
            [
              -5.999706798337215,
              31.82897873382137
            ],
            [
              -6.000460184639613,
              31.78247818853929
            ],
            [
              -6.009861950078311,
              31.75182944362776
            ],
            [
              -6.026047227690613,
              31.72332400400605
            ],
            [
              -6.042520845098983,
              31.70405712387803
            ],
            [
              -6.007667758115283,
              31.654160784748278
            ],
            [
              -5.966700411674319,
              31.611612011592232
            ],
            [
              -5.950678441645974,
              31.58038296639175
            ],
            [
              -5.933945562721701,
              31.532835997819053
            ],
            [
              -5.930429862887918,
              31.485438499168346
            ],
            [
              -5.943841278404223,
              31.43775146507892
            ],
            [
              -5.927763911621356,
              31.409581925721497
            ],
            [
              -5.9174887360014825,
              31.379656202115232
            ],
            [
              -5.9140833990311465,
              31.348596657572852
            ],
            [
              -5.918586338256667,
              31.30195682448982
            ],
            [
              -5.914617972736444,
              31.26581034802463
            ],
            [
              -5.918780325995282,
              31.2354364754194
            ],
            [
              -5.943544620122282,
              31.169096618579722
            ],
            [
              -5.94368128940055,
              31.1260617612052
            ],
            [
              -5.951793851190594,
              31.096484444503492
            ],
            [
              -5.983318344583251,
              31.044212707858556
            ],
            [
              -6.018611093299969,
              31.011940160526834
            ],
            [
              -5.995188769091036,
              30.974309542142777
            ],
            [
              -5.985877851286246,
              30.944230447468044
            ],
            [
              -5.98094992471487,
              30.883546216017145
            ],
            [
              -5.9909808123136745,
              30.83517824849587
            ],
            [
              -5.979884473736342,
              30.80227981686975
            ],
            [
              -5.9770783252696305,
              30.77068161564734
            ],
            [
              -5.983288248459038,
              30.72570120756595
            ],
            [
              -6.002215240550078,
              30.672807979560545
            ],
            [
              -6.036720338572613,
              30.620987672455573
            ],
            [
              -6.064493621555033,
              30.597140566850726
            ],
            [
              -6.1032619711369245,
              30.57110569943826
            ],
            [
              -6.1349516562571536,
              30.55660415327798
            ],
            [
              -6.169244558775267,
              30.547576724934775
            ],
            [
              -6.204893087940257,
              30.544352124311537
            ],
            [
              -6.240600892832268,
              30.547048016800957
            ],
            [
              -6.275069323394279,
              30.555566746670777
            ],
            [
              -6.307937165023332,
              30.570142157544467
            ],
            [
              -6.356064063381652,
              30.57220452333638
            ],
            [
              -6.403930927860541,
              30.58580007676363
            ],
            [
              -6.435868294591499,
              30.588009401477464
            ],
            [
              -6.507771008367211,
              30.560032960802346
            ],
            [
              -6.541178099465171,
              30.551176222286685
            ],
            [
              -6.593031396089625,
              30.544940640155687
            ],
            [
              -6.637662654446478,
              30.549314386582807
            ],
            [
              -6.68291898436564,
              30.52396256412267
            ],
            [
              -6.7326447698732785,
              30.508054545608076
            ],
            [
              -6.8206605242155804,
              30.502312355551403
            ],
            [
              -6.861451511239843,
              30.477625503620526
            ],
            [
              -6.89668232025306,
              30.465732006115513
            ],
            [
              -6.980230240989304,
              30.457416133323452
            ],
            [
              -7.028160840031128,
              30.459982601576613
            ],
            [
              -7.0726524168845915,
              30.433002630888378
            ],
            [
              -7.137201954119771,
              30.41303345930815
            ],
            [
              -7.193393160478479,
              30.371236533750327
            ],
            [
              -7.250004901643641,
              30.346179734925638
            ],
            [
              -7.298118854525776,
              30.288871679528427
            ],
            [
              -7.3257704348075094,
              30.26671341801873
            ],
            [
              -7.348931648686094,
              30.254020595669108
            ],
            [
              -7.333962788963185,
              30.22509672510392
            ],
            [
              -7.325917662508972,
              30.19497445256567
            ],
            [
              -7.321417080031079,
              30.13756695704577
            ],
            [
              -7.3300354088174675,
              30.089669993248698
            ],
            [
              -7.354513339478709,
              30.046115225485654
            ],
            [
              -7.40454290436983,
              29.999678836756924
            ],
            [
              -7.412699593929051,
              29.975852874429652
            ],
            [
              -7.429800932463823,
              29.94688484748641
            ],
            [
              -7.4669482651086785,
              29.91041449623238
            ],
            [
              -7.514824063485601,
              29.885175082037005
            ],
            [
              -7.552591179310229,
              29.875506689486052
            ],
            [
              -7.620302457788647,
              29.836100671389204
            ],
            [
              -7.714277537454921,
              29.80852946766476
            ],
            [
              -7.766684185247698,
              29.800663364546978
            ],
            [
              -7.819506341182432,
              29.80601410224796
            ],
            [
              -7.8572924441379906,
              29.81863195885358
            ],
            [
              -7.95260911106096,
              29.835776852778213
            ],
            [
              -8.000348819817443,
              29.85904028815727
            ],
            [
              -8.032524672525314,
              29.88641224444023
            ],
            [
              -8.067585487160294,
              29.869835598003974
            ],
            [
              -8.085259783977376,
              29.8290861037091
            ],
            [
              -8.105319968967061,
              29.80323346659532
            ],
            [
              -8.13066957050645,
              29.781199636435915
            ],
            [
              -8.16037261289251,
              29.763795626877396
            ],
            [
              -8.24911714024573,
              29.7372697977511
            ],
            [
              -8.286008690229785,
              29.733903631751154
            ],
            [
              -8.33137856413606,
              29.73881831347126
            ],
            [
              -8.337779327480908,
              29.701553468826113
            ],
            [
              -8.351053567193398,
              29.671572706621074
            ],
            [
              -8.370818635017992,
              29.644458385752884
            ],
            [
              -8.403073241782907,
              29.616700117267712
            ],
            [
              -8.414556489856095,
              29.59441515516303
            ],
            [
              -8.435463768681954,
              29.56801024069643
            ],
            [
              -8.476863552277788,
              29.536379868436203
            ],
            [
              -8.531766765671163,
              29.515545445493622
            ],
            [
              -8.574231288072042,
              29.43777798670347
            ],
            [
              -8.605452659074603,
              29.399369317620785
            ],
            [
              -8.662294351406137,
              29.35897702027094
            ],
            [
              -8.711355860956523,
              29.33798709023661
            ],
            [
              -8.765256877948058,
              29.330404631571728
            ],
            [
              -8.843134207698922,
              29.336571399131667
            ],
            [
              -8.878813335522981,
              29.343299614559974
            ],
            [
              -8.927821137131026,
              29.364468230415863
            ],
            [
              -8.955645819523456,
              29.38517085383845
            ],
            [
              -8.990037438741634,
              29.421933241061044
            ],
            [
              -9.039131854085475,
              29.45916986277115
            ],
            [
              -9.059879306290899,
              29.484526687416057
            ],
            [
              -9.075715377944226,
              29.515864557918345
            ],
            [
              -9.099497581148682,
              29.540212625951444
            ],
            [
              -9.117291713882539,
              29.566485321120492
            ],
            [
              -9.1910423832591,
              29.57045671783374
            ],
            [
              -9.225793667840486,
              29.58077666583223
            ],
            [
              -9.257556509769278,
              29.596857209737287
            ],
            [
              -9.296938164616869,
              29.630357166878408
            ],
            [
              -9.318904059348482,
              29.663225807297508
            ],
            [
              -9.39327704993494,
              29.713852111845227
            ],
            [
              -9.422115405006895,
              29.73807490522971
            ],
            [
              -9.442997691650044,
              29.762725211958372
            ],
            [
              -9.468382851618387,
              29.808882194990233
            ],
            [
              -9.477425851290668,
              29.839033159428954
            ],
            [
              -9.481700016045872,
              29.950340260306604
            ],
            [
              -9.473482226590523,
              29.98210432986602
            ],
            [
              -9.44902906723321,
              30.03144072120291
            ],
            [
              -9.432465367410014,
              30.057014805346526
            ],
            [
              -9.413982868636532,
              30.076609322563492
            ],
            [
              -9.406315128237813,
              30.09872505729057
            ],
            [
              -9.389346529671839,
              30.127518646708726
            ],
            [
              -9.489940752987605,
              30.211875238773864
            ],
            [
              -9.522843527020388,
              30.24870750557229
            ],
            [
              -9.542364509555537,
              30.29213319942042
            ],
            [
              -9.54706540983191,
              30.325021844945468
            ],
            [
              -9.555830647092613,
              30.344648029855875
            ],
            [
              -9.563225279636852,
              30.378530390759522
            ],
            [
              -9.600553268644507,
              30.381508734037233
            ],
            [
              -9.63597746757232,
              30.39071275938553
            ],
            [
              -9.668635376578859,
              30.405761285876515
            ],
            [
              -9.697258605523473,
              30.426070409150718
            ],
            [
              -9.720733454779994,
              30.45085175339229
            ],
            [
              -9.738144066481446,
              30.47914274557358
            ],
            [
              -9.748808285941651,
              30.509843666210543
            ],
            [
              -9.751773515364647,
              30.550314022173385
            ],
            [
              -9.769246490087019,
              30.58297348808889
            ],
            [
              -9.775471690779922,
              30.604958284346203
            ],
            [
              -9.812071774080147,
              30.62073289370886
            ],
            [
              -9.848125743912934,
              30.644640171255112
            ],
            [
              -9.88433778236919,
              30.68730130384638
            ],
            [
              -9.951014183641943,
              30.73152854689987
            ],
            [
              -9.98363042656108,
              30.769086356920376
            ],
            [
              -10.002465210877757,
              30.81312827978704
            ],
            [
              -10.006528229399265,
              30.84429095458928
            ],
            [
              -10.003574770787337,
              30.87554643026109
            ],
            [
              -9.98028461188989,
              30.94643827330595
            ],
            [
              -9.990256802613661,
              31.005133448608024
            ],
            [
              -10.000913110428977,
              31.03938705847529
            ],
            [
              -10.000548427914248,
              31.088838648509952
            ]
          ]
        ]
      },
      "properties": {
        "name": "Route 18.0km Route Corridor",
        "buffer_km": 18.0,
        "buffer_meters": 18000.0,
        "point_count": 73452
      }
    }
  ]
}