{
  "type": "FeatureCollection",
  "features": [
    {
      "type": "Feature",
      "geometry": {
        "type": "Polygon",
        "coordinates": [
          [
            [
              72.05774968478389,
              42.3925046387138
            ],
            [
              72.03801003791058,
              42.42692696032484
            ],
            [
              72.02944846891582,
              42.476389612963054
            ],
            [
              72.03660691625055,
              42.55719452201122
            ],
            [
              72.0599118901949,
              42.601501470273654
            ],
            [
              72.09966082481289,
              42.63889115291646
            ],
            [
              72.15244214060102,
              42.66612910711191
            ],
            [
              72.21369767173667,
              42.6808548735516
            ],
            [
              72.25663837933465,
              42.68304099191547
            ],
            [
              72.29932945066825,
              42.67898819890224
            ],
            [
              72.35930083219282,
              42.66161831261138
            ],
            [
              72.39431740252546,
              42.64316433077974
            ],
            [
              72.42376212399743,
              42.620013323742356
            ],
            [
              72.44650381244907,
              42.59305962511173
            ],
            [
              72.46167370600925,
              42.56334335802966
            ],
            [
              72.46901874621557,
              42.518014241777244
            ],
            [
              72.48322950931953,
              42.4975532284692
            ],
            [
              72.49553241413676,
              42.46815065131034
            ],
            [
              72.50007550759567,
              42.43714060867802
            ],
            [
              72.53463683866224,
              42.37491679333554
            ],
            [
              72.60942239822093,
              42.2989757837323
            ],
            [
              72.63390811265342,
              42.255270244525285
            ],
            [
              72.6402565588625,
              42.22400255344915
            ],
            [
              72.63831079296644,
              42.192413927387804
            ],
            [
              72.6281571138544,
              42.16170726360532
            ],
            [
              72.61370569148126,
              42.13800801161053
            ],
            [
              72.64622249065515,
              42.110052557161104
            ],
            [
              72.66578696995656,
              42.084749154673545
            ],
            [
              72.69176167885512,
              42.075207924426486
            ],
            [
              72.73013418124916,
              42.05356316265665
            ],
            [
              72.75828112508052,
              42.06223849999796
            ],
            [
              72.79916555826975,
              42.068955761454966
            ],
            [
              72.85775850862154,
              42.06817715048613
            ],
            [
              72.91249317499204,
              42.07220278031821
            ],
            [
              72.97292590852993,
              42.06494399485456
            ],
            [
              73.01214972510253,
              42.055233088961614
            ],
            [
              73.04157929562481,
              42.043237270702406
            ],
            [
              73.10482357565229,
              42.03504159033179
            ],
            [
              73.13086661836948,
              42.04469381725541
            ],
            [
              73.18085426240012,
              42.07267113890878
            ],
            [
              73.26152821077255,
              42.094597946420045
            ],
            [
              73.32720587248934,
              42.09617169023925
            ],
            [
              73.37003734310791,
              42.08900189922726
            ],
            [
              73.39932887635595,
              42.07966139628426
            ],
            [
              73.44237613423846,
              42.09293924790779
            ],
            [
              73.50618480152218,
              42.09929867169861
            ],
            [
              73.56282929455676,
              42.095860705582226
            ],
            [
              73.62913385054135,
              42.07978404271279
            ],
            [
              73.68749615088569,
              42.076509973941796
            ],
            [
              73.72951489887886,
              42.06819671760065
            ],
            [
              73.76846039559065,
              42.053810852995255
            ],
            [
              73.81459105362121,
              42.024650034415004
            ],
            [
              73.86045221245178,
              42.0442932043653
            ],
            [
              73.89033671476902,
              42.05149938236346
            ],
            [
              73.84492984050566,
              42.1192354523135
            ],
            [
              73.83215774749226,
              42.14985310678357
            ],
            [
              73.8277243881915,
              42.181742324046255
            ],
            [
              73.83174518684496,
              42.221479846827116
            ],
            [
              73.83916862397186,
              42.25066245959176
            ],
            [
              73.86338471292838,
              42.291334182642196
            ],
            [
              73.941223186588,
              42.3578396921923
            ],
            [
              73.99161047226528,
              42.38333153150196
            ],
            [
              74.04295496498226,
              42.3986232999695
            ],
            [
              74.08951717386168,
              42.42513484847469
            ],
            [
              74.15100478354971,
              42.443469522304824
            ],
            [
              74.20531967991329,
              42.4685655197463
            ],
            [
              74.2467908180497,
              42.47840225643653
            ],
            [
              74.34368787960143,
              42.48163312427608
            ],
            [
              74.41071315061338,
              42.46913041625984
            ],
            [
              74.45873170390503,
              42.48900296419537
            ],
            [
              74.58825880064327,
              42.5179574109317
            ],
            [
              74.67767726743705,
              42.52461443491718
            ],
            [
              74.71672933149131,
              42.522383359467796
            ],
            [
              74.85862742732395,
              42.535265754366954
            ],
            [
              74.87486193854704,
              42.5469443923098
            ],
            [
              74.8878113755293,
              42.579778227303606
            ],
            [
              74.91877620454518,
              42.62852155536597
            ],
            [
              74.9247030131128,
              42.667313717921864
            ],
            [
              74.93877501874155,
              42.6972181016614
            ],
            [
              74.94617883124481,
              42.735252498283415
            ],
            [
              74.96171960710872,
              42.76518002940218
            ],
            [
              74.99920406875886,
              42.80440517720745
            ],
            [
              75.03222506900909,
              42.82528129552955
            ],
            [
              75.07019908745039,
              42.84095541506906
            ],
            [
              75.1985967954376,
              42.86804563848304
            ],
            [
              75.26519280605359,
              42.86740844994287
            ],
            [
              75.43372049160003,
              42.845535307643225
            ],
            [
              75.49336022613828,
              42.82298388900012
            ],
            [
              75.53133533445121,
              42.796878412141716
            ],
            [
              75.63916283284611,
              42.81544502908755
            ],
            [
              75.76123587390508,
              42.86081480095525
            ],
            [
              75.8019902408685,
              42.86951065374914
            ],
            [
              75.86547084860172,
              42.871407140004486
            ],
            [
              75.90705113381114,
              42.86517119148119
            ],
            [
              75.94512214369878,
              42.85355807032849
            ],
            [
              76.0200210149421,
              42.87623110120406
            ],
            [
              76.07775653371073,
              42.90225916817296
            ],
            [
              76.11854305514434,
              42.91140181719711
            ],
            [
              76.2621989220414,
              42.931144103328606
            ],
            [
              76.3059651428905,
              42.95140207303462
            ],
            [
              76.36650829930807,
              42.97133319518223
            ],
            [
              76.42762971633923,
              42.98162072835818
            ],
            [
              76.4933329914723,
              43.00535825669573
            ],
            [
              76.53198396740585,
              43.01371736460834
            ],
            [
              76.62653602587812,
              43.02600773406733
            ],
            [
              76.66764672619911,
              43.02587325702418
            ],
            [
              76.70345489533118,
              43.02094781986463
            ],
            [
              76.78108068738074,
              43.0329681595638
            ],
            [
              76.8465255735513,
              43.03278298627783
            ],
            [
              76.88885763577281,
              43.02477664006065
            ],
            [
              76.92819453183571,
              43.01079675115481
            ],
            [
              76.96298736299359,
              42.99139490900689
            ],
            [
              76.99186999654651,
              42.967335868479815
            ],
            [
              77.02171762002725,
              42.924627802716074
            ],
            [
              77.05547369553595,
              42.851030999027685
            ],
            [
              77.06636252683245,
              42.808507332627975
            ],
            [
              77.13762449294367,
              42.80295432850632
            ],
            [
              77.19607364270937,
              42.78377843038477
            ],
            [
              77.2574886699548,
              42.74388657934232
            ],
            [
              77.29199237049596,
              42.703714689239824
            ],
            [
              77.30916456622674,
              42.65788434747164
            ],
            [
              77.31020531857608,
              42.626130149481305
            ],
            [
              77.30284105743345,
              42.5948357091474
            ],
            [
              77.28736652748431,
              42.56520181404954
            ],
            [
              77.26438544994745,
              42.53836396259677
            ],
            [
              77.23478596768342,
              42.515349236383216
            ],
            [
              77.19970577891148,
              42.497037480664865
            ],
            [
              77.13979198489713,
              42.47986212113761
            ],
            [
              77.07684139765395,
              42.47624539322289
            ],
            [
              76.9468056013983,
              42.44513064877145
            ],
            [
              76.90581644463379,
              42.43842129292264
            ],
            [
              76.84298740826739,
              42.439448939820934
            ],
            [
              76.78312237951101,
              42.453631204794156
            ],
            [
              76.74730477789977,
              42.4698627893
            ],
            [
              76.71631241122047,
              42.490851632792186
            ],
            [
              76.68130718910184,
              42.52953302744587
            ],
            [
              76.63974498181311,
              42.63590779355553
            ],
            [
              76.63333719940472,
              42.664150065961934
            ],
            [
              76.63387273478183,
              42.693347218518895
            ],
            [
              76.55872866115095,
              42.66805451390389
            ],
            [
              76.51686071017433,
              42.65961196131885
            ],
            [
              76.394482345766,
              42.61864605547276
            ],
            [
              76.35453576501551,
              42.61231148251471
            ],
            [
              76.31260291670806,
              42.60015176514224
            ],
            [
              76.24977024539815,
              42.594360416134215
            ],
            [
              76.19604652694275,
              42.57866926542929
            ],
            [
              76.15905100240167,
              42.56073639155995
            ],
            [
              76.1162979799927,
              42.548363471362904
            ],
            [
              76.03833415311976,
              42.533111900378785
            ],
            [
              75.9460780324772,
              42.52301535249748
            ],
            [
              75.90208027362583,
              42.52178721720754
            ],
            [
              75.8539683043744,
              42.52800392592418
            ],
            [
              75.82719345991487,
              42.51546564343392
            ],
            [
              75.74903208702177,
              42.489923182645924
            ],
            [
              75.72377769933493,
              42.457570921915455
            ],
            [
              75.69523361982431,
              42.434456058336906
            ],
            [
              75.66124016602352,
              42.41582932351159
            ],
            [
              75.60284422417007,
              42.39776477327088
            ],
            [
              75.53993018870473,
              42.39281073605205
            ],
            [
              75.44851959553343,
              42.40542157702981
            ],
            [
              75.33695891565957,
              42.43582996772549
            ],
            [
              75.2944342921807,
              42.453106159857114
            ],
            [
              75.2832478058542,
              42.422835328196555
            ],
            [
              75.29826005213067,
              42.41562269526743
            ],
            [
              75.38575294610091,
              42.39251877980111
            ],
            [
              75.44230815127838,
              42.38327658903688
            ],
            [
              75.5321996190143,
              42.38807692151505
            ],
            [
              75.58688934387435,
              42.38203587574437
            ],
            [
              75.63283301686766,
              42.39106979617917
            ],
            [
              75.69347617225175,
              42.39125328031234
            ],
            [
              75.7383448243406,
              42.3953719641645
            ],
            [
              75.78008681001903,
              42.39289899643261
            ],
            [
              75.83958673230192,
              42.37827806066162
            ],
            [
              75.87504389259776,
              42.361781381810836
            ],
            [
              75.91866363262976,
              42.3284291739893
            ],
            [
              75.96934714448707,
              42.25432715483036
            ],
            [
              76.01249319923376,
              42.2401478756405
            ],
            [
              76.04771232994378,
              42.22112573452039
            ],
            [
              76.10286093378784,
              42.17166036447965
            ],
            [
              76.15692513275796,
              42.138272761040355
            ],
            [
              76.18122867966783,
              42.11268712668892
            ],
            [
              76.20286056419444,
              42.07250369639161
            ],
            [
              76.28368490282355,
              42.07238355108975
            ],
            [
              76.3257618267641,
              42.06441378412472
            ],
            [
              76.37238234825725,
              42.048556769950864
            ],
            [
              76.43307307119353,
              42.04756083363854
            ],
            [
              76.47362395502398,
              42.03999861816723
            ],
            [
              76.5114698802067,
              42.02677997716936
            ],
            [
              76.54520517455745,
              42.0083967686953
            ],
            [
              76.58319312543902,
              41.9775950159938
            ],
            [
              76.64650188128368,
              41.93817962870348
            ],
            [
              76.66539504778457,
              41.92147704084949
            ],
            [
              76.75004951632573,
              41.92064087527424
            ],
            [
              76.82247786801719,
              41.90332659939674
            ],
            [
              76.87199899646534,
              41.96903310601539
            ],
            [
              76.90251626889265,
              41.99482341698013
            ],
            [
              76.93966602109347,
              42.01521506055708
            ],
            [
              76.99567283152226,
              42.03409666407619
            ],
            [
              77.03661364019895,
              42.04114812184402
            ],
            [
              77.07861218308538,
              42.04218124032325
            ],
            [
              77.13721319282452,
              42.03626178011586
            ],
            [
              77.14553842468233,
              42.061348788204874
            ],
            [
              77.14969118708763,
              42.102895994003745
            ],
            [
              77.17461174552398,
              42.16319167528214
            ],
            [
              77.17544892379122,
              42.193801785620145
            ],
            [
              77.18488850642849,
              42.225483007050016
            ],
            [
              77.20264474838729,
              42.255128294313685
            ],
            [
              77.2280142415501,
              42.28154513949413
            ],
            [
              77.27805159485197,
              42.312835665064966
            ],
            [
              77.33837134770489,
              42.33168196476058
            ],
            [
              77.40352292394472,
              42.336380152545104
            ],
            [
              77.51460239957726,
              42.318237344926416
            ],
            [
              77.57549123721067,
              42.31591770794299
            ],
            [
              77.65339377638418,
              42.300534044749924
            ],
            [
              77.69255438646137,
              42.287617944585705
            ],
            [
              77.72754056181,
              42.269258555061775
            ],
            [
              77.75699957478848,
              42.246168256317986
            ],
            [
              77.77979670364559,
              42.21924195912168
            ],
            [
              77.79505878639652,
              42.18952189282374
            ],
            [
              77.81231506561576,
              42.13786486385315
            ],
            [
              77.81596633469947,
              42.06945243452905
            ],
            [
              77.82645687376652,
              42.04556396633187
            ],
            [
              77.85075621126614,
              42.01436909968295
            ],
            [
              77.87420496988877,
              41.99944419225528
            ],
            [
              77.9166629506102,
              41.962081912236464
            ],
            [
              77.9470886866439,
              41.92533013447674
            ],
            [
              77.97040217963234,
              41.86211634953479
            ],
            [
              77.97036060279697,
              41.81527143109821
            ],
            [
              77.96032310557048,
              41.78489498257364
            ],
            [
              77.94268322610833,
              41.756526364369265
            ],
            [
              77.91810610423957,
              41.73122040417231
            ],
            [
              77.88751170249586,
              41.70991700690447
            ],
            [
              77.85204005281305,
              41.69340670542926
            ],
            [
              77.81783688564606,
              41.68347952800823
            ],
            [
              77.76354963024862,
              41.655876360112586
            ],
            [
              77.7234981817158,
              41.64511030542155
            ],
            [
              77.65291228978326,
              41.63698605449359
            ],
            [
              77.60058277697733,
              41.61676724544041
            ],
            [
              77.49486648497614,
              41.602883582430174
            ],
            [
              77.44236513038689,
              41.58818822704444
            ],
            [
              77.37645863932535,
              41.584241705302816
            ],
            [
              77.25713354580911,
              41.6023404987638
            ],
            [
              77.10683137059927,
              41.633951132904464
            ],
            [
              77.08498597509637,
              41.62560043067846
            ],
            [
              77.03380564425507,
              41.596332264880324
            ],
            [
              76.98122294609091,
              41.57772314038101
            ],
            [
              76.92924121982303,
              41.568206979211006
            ],
            [
              76.86342278112873,
              41.56515989352551
            ],
            [
              76.84247804500674,
              41.56019012388316
            ],
            [
              76.81492199489595,
              41.54632318000206
            ],
            [
              76.77614348697139,
              41.53373072353182
            ],
            [
              76.70946888997452,
              41.52610611419605
            ],
            [
              76.65647870474906,
              41.5112823701756
            ],
            [
              76.65241491991284,
              41.4868868525147
            ],
            [
              76.63239804027475,
              41.43246881950859
            ],
            [
              76.61208583152721,
              41.40403877338257
            ],
            [
              76.57142385343296,
              41.370259284247034
            ],
            [
              76.61679777040075,
              41.33967738549315
            ],
            [
              76.64143021588882,
              41.315175611838065
            ],
            [
              76.65946710973894,
              41.28760575244693
            ],
            [
              76.67282295580146,
              41.24269524503109
            ],
            [
              76.67059873432574,
              41.16873581138167
            ],
            [
              76.65411655474048,
              41.11678003519001
            ],
            [
              76.66450817171692,
              41.08029560813145
            ],
            [
              76.6660695020449,
              41.04866538407605
            ],
            [
              76.65320781791823,
              41.00229305563129
            ],
            [
              76.63450261997421,
              40.97326762959841
            ],
            [
              76.64764156434373,
              40.93521074537086
            ],
            [
              76.64943242237712,
              40.88718369629708
            ],
            [
              76.63260727018618,
              40.84086596622392
            ],
            [
              76.61086403577988,
              40.81212045548115
            ],
            [
              76.6059596296893,
              40.78211514575305
            ],
            [
              76.60761466741914,
              40.74420568676276
            ],
            [
              76.59276995130212,
              40.69754709623692
            ],
            [
              76.56065300775899,
              40.656234165468476
            ],
            [
              76.51409764363937,
              40.62387634137622
            ],
            [
              76.47701206251003,
              40.608713814233276
            ],
            [
              76.43674773337848,
              40.599397138337864
            ],
            [
              76.34175398792331,
              40.596725874543054
            ],
            [
              76.2837547719885,
              40.6032969521808
            ],
            [
              76.17338663043387,
              40.638202197468175
            ],
            [
              76.14634217064518,
              40.628022019275775
            ],
            [
              76.06120732194489,
              40.58479039955382
            ],
            [
              76.0033695220461,
              40.57146660366903
            ],
            [
              75.83415517952328,
              40.552492496014395
            ],
            [
              75.71375805013975,
              40.556563450891154
            ],
            [
              75.6694640237267,
              40.564878928270964
            ],
            [
              75.61871546811068,
              40.54150751793174
            ],
            [
              75.59073068966008,
              40.49990255935766
            ],
            [
              75.5631986290255,
              40.47585370036333
            ],
            [
              75.44098857785649,
              40.41394812222553
            ],
            [
              75.40742976072494,
              40.40093428892467
            ],
            [
              75.34150801203509,
              40.38576302188299
            ],
            [
              75.304080976514,
              40.38245431528582
            ],
            [
              75.26647828992098,
              40.384250369281425
            ],
            [
              75.05074990887775,
              40.40916068850221
            ],
            [
              74.98883675841856,
              40.42388925331124
            ],
            [
              74.95205053247972,
              40.44139024446747
            ],
            [
              74.92066242421605,
              40.46422686678816
            ],
            [
              74.89598048705874,
              40.491451760925216
            ],
            [
              74.84348588444593,
              40.564141641309064
            ],
            [
              74.78936434576414,
              40.56991703402549
            ],
            [
              74.68833149474925,
              40.591851291116875
            ],
            [
              74.65906590633202,
              40.60250417232259
            ],
            [
              74.62787580638549,
              40.607546781451646
            ],
            [
              74.5543424838865,
              40.57175444561836
            ],
            [
              74.4903171625809,
              40.5582946707766
            ],
            [
              74.39782260799443,
              40.56228116431103
            ],
            [
              74.34056586288145,
              40.577405126235114
            ],
            [
              74.2560273516423,
              40.62543583198743
            ],
            [
              74.20178327060424,
              40.66992788030667
            ],
            [
              74.1855254708122,
              40.688294820008224
            ],
            [
              74.13392785361563,
              40.71160191575923
            ],
            [
              74.10315442086514,
              40.73406361229136
            ],
            [
              74.07744941175574,
              40.76291083241284
            ],
            [
              74.04375256604125,
              40.79104978799038
            ],
            [
              74.01510106103345,
              40.83021782010294
            ],
            [
              73.98904667937911,
              40.854149117985315
            ],
            [
              73.96864499039658,
              40.88310122753351
            ],
            [
              73.95633176044846,
              40.9145778369048
            ],
            [
              73.9526225103402,
              40.94729083023893
            ],
            [
              73.95916673303408,
              40.98397727592161
            ],
            [
              73.95549720091832,
              41.02985120418191
            ],
            [
              73.96523908502272,
              41.07795058981492
            ],
            [
              73.98210488235817,
              41.10785105712425
            ],
            [
              74.02020834888044,
              41.146747398998976
            ],
            [
              74.03592352845472,
              41.17180158572184
            ],
            [
              74.06130927234693,
              41.19786047649372
            ],
            [
              74.11093530542567,
              41.228541577309734
            ],
            [
              74.14979317326885,
              41.24219644749916
            ],
            [
              74.19752027869583,
              41.25012936337483
            ],
            [
              74.2527694926259,
              41.27681550914128
            ],
            [
              74.30249815465619,
              41.32584502101281
            ],
            [
              74.37506914247014,
              41.368848754495026
            ],
            [
              74.47190416832755,
              41.397061449697865
            ],
            [
              74.51290014016747,
              41.42499427269164
            ],
            [
              74.54918771862106,
              41.4405299580089
            ],
            [
              74.60855431824571,
              41.453902105526346
            ],
            [
              74.65313104621087,
              41.45785109453471
            ],
            [
              74.6725009929247,
              41.489020789749986
            ],
            [
              74.72110613914826,
              41.53414935766971
            ],
            [
              74.75400705395595,
              41.55262815450077
            ],
            [
              74.80153042227946,
              41.5685928804883
            ],
            [
              74.80729407114522,
              41.60370231470774
            ],
            [
              74.79482712463056,
              41.64404069246648
            ],
            [
              74.79494275201452,
              41.675802969939014
            ],
            [
              74.8105218199757,
              41.72189485638684
            ],
            [
              74.83114553973739,
              41.75040103139406
            ],
            [
              74.8153960429232,
              41.77912206633218
            ],
            [
              74.79393481549828,
              41.83588313490007
            ],
            [
              74.79152939272934,
              41.88493454332405
            ],
            [
              74.80096577793029,
              41.91696061103765
            ],
            [
              74.83297693041695,
              41.97014903177852
            ],
            [
              74.89948414736189,
              42.028541287359445
            ],
            [
              74.9473675687778,
              42.09602759899833
            ],
            [
              74.96000225598672,
              42.13848623224518
            ],
            [
              74.98780876124302,
              42.18150896095747
            ],
            [
              74.94582346478809,
              42.210869969282015
            ],
            [
              74.90231196772739,
              42.19833933162734
            ],
            [
              74.85962356789295,
              42.19320349849708
            ],
            [
              74.81641225909911,
              42.194417732213225
            ],
            [
              74.77751383732536,
              42.20124775687674
            ],
            [
              74.64515775116904,
              42.19278669827651
            ],
            [
              74.55153052844975,
              42.146187531460015
            ],
            [
              74.49240996594236,
              42.13218283379659
            ],
            [
              74.45107823846222,
              42.13000866802926
            ],
            [
              74.34192894432503,
              42.13978702661864
            ],
            [
              74.38295256607672,
              42.06021617217589
            ],
            [
              74.3918877624572,
              41.99392717902347
            ],
            [
              74.35947568679592,
              41.879276085459125
            ],
            [
              74.3299713544071,
              41.83633872962369
            ],
            [
              74.3014374511571,
              41.81216442333201
            ],
            [
              74.24815688710844,
              41.78495046248084
            ],
            [
              74.13679666537878,
              41.748438655852034
            ],
            [
              74.0975172293832,
              41.741455235657796
            ],
            [
              74.04198201866234,
              41.73886365414366
            ],
            [
              73.96244499309482,
              41.698628080104235
            ],
            [
              73.92354183007754,
              41.684357424384935
            ],
            [
              73.8816378601132,
              41.67616838380981
            ],
            [
              73.81682317237852,
              41.67593124844218
            ],
            [
              73.71258328190733,
              41.69287550664556
            ],
            [
              73.62460381772273,
              41.72032093649069
            ],
            [
              73.59007749235258,
              41.73478494459197
            ],
            [
              73.54935967615461,
              41.735886574074584
            ],
            [
              73.51867058704102,
              41.74080189462855
            ],
            [
              73.4688755161517,
              41.72476043752637
            ],
            [
              73.42754497207578,
              41.71914906294949
            ],
            [
              73.38554791493338,
              41.719611144962286
            ],
            [
              73.34848128427629,
              41.724708956320384
            ],
            [
              73.30213434390954,
              41.70331699410138
            ],
            [
              73.2636797333133,
              41.69349219011146
            ],
            [
              73.18462337815463,
              41.68022199388261
            ],
            [
              73.13907243609647,
              41.67937720820049
            ],
            [
              73.02464761546364,
              41.69039848119882
            ],
            [
              72.89398653443735,
              41.72500995783134
            ],
            [
              72.86383337822065,
              41.71476020623078
            ],
            [
              72.82287998684856,
              41.70710953519844
            ],
            [
              72.72177133955613,
              41.704193566587946
            ],
            [
              72.67963219221255,
              41.708231702229405
            ],
            [
              72.6393493098295,
              41.71835048859492
            ],
            [
              72.59103423361408,
              41.74024790521544
            ],
            [
              72.52229745774527,
              41.75856739291576
            ],
            [
              72.48932220363263,
              41.774178421764866
            ],
            [
              72.45936279453048,
              41.79498747581599
            ],
            [
              72.37059580117366,
              41.83759657519949
            ],
            [
              72.33990768915913,
              41.860048854175204
            ],
            [
              72.32115590668846,
              41.87993366404525
            ],
            [
              72.29329425311006,
              41.89337104189554
            ],
            [
              72.25637363980833,
              41.91916381543105
            ],
            [
              72.22231634715286,
              41.94999687501603
            ],
            [
              72.17804775815279,
              41.96966409061542
            ],
            [
              72.14525144804587,
              41.990944997249095
            ],
            [
              72.11877080824051,
              42.01666570293768
            ],
            [
              72.09966969474452,
              42.04580035319025
            ],
            [
              72.08872101977693,
              42.07718560400264
            ],
            [
              72.08847434285873,
              42.12572553606214
            ],
            [
              72.09912264102977,
              42.15717025024092
            ],
            [
              72.12915496049857,
              42.19859288796772
            ],
            [
              72.14133872659873,
              42.224792396837145
            ],
            [
              72.073367147015,
              42.30645688865408
            ],
            [
              72.05750277354937,
              42.351056744229986
            ],
            [
              72.05774968478389,
              42.3925046387138
            ]
          ],
          [
            [
              75.55754512088451,
              42.05458952590324
            ],
            [
              75.51225936703364,
              42.05462710380625
            ],
            [
              75.465969664522,
              42.05938570203923
            ],
            [
              75.41375686856887,
              42.01074129513162
            ],
            [
              75.3687497538349,
              41.98528003775812
            ],
            [
              75.32956548450248,
              41.920189525420376
            ],
            [
              75.3237159103252,
              41.88609606286324
            ],
            [
              75.3036656291601,
              41.84701636609807
            ],
            [
              75.32118201333496,
              41.82304903524224
            ],
            [
              75.33418897914966,
              41.79288498061698
            ],
            [
              75.33844582412107,
              41.74554429658349
            ],
            [
              75.33097372364011,
              41.7143470408845
            ],
            [
              75.31555409833989,
              41.684833241750965
            ],
            [
              75.26346005442795,
              41.63039311504777
            ],
            [
              75.26527240164731,
              41.589490568020594
            ],
            [
              75.25287960974266,
              41.54943224698234
            ],
            [
              75.25639515847203,
              41.50682881432658
            ],
            [
              75.24448577561675,
              41.448988652455284
            ],
            [
              75.24768762451752,
              41.40974405128794
            ],
            [
              75.24249286262577,
              41.37724948345499
            ],
            [
              75.21883644846027,
              41.33161774693295
            ],
            [
              75.19343999696491,
              41.30507271430875
            ],
            [
              75.16237045905503,
              41.2834445455202
            ],
            [
              75.16259067524358,
              41.253630581122195
            ],
            [
              75.15504937248772,
              41.22308884391836
            ],
            [
              75.13994129716417,
              41.1941918156578
            ],
            [
              75.11782911693534,
              41.167997608997496
            ],
            [
              75.07337605847596,
              41.135833667451784
            ],
            [
              75.03780322278224,
              41.12028461089248
            ],
            [
              74.98266100322466,
              41.10715768559481
            ],
            [
              74.88236017490586,
              41.04267092679725
            ],
            [
              74.82420741655405,
              41.02085379306145
            ],
            [
              74.78178379502644,
              41.014104945809066
            ],
            [
              74.7169698949921,
              41.01636004717559
            ],
            [
              74.6354580175281,
              41.03971127808903
            ],
            [
              74.59274903457417,
              41.063117133427625
            ],
            [
              74.56274303561261,
              41.02830316888242
            ],
            [
              74.53284472249538,
              41.00662933556529
            ],
            [
              74.47915504068563,
              40.98323355954545
            ],
            [
              74.42999813807323,
              40.97358519191868
            ],
            [
              74.4769849049722,
              40.949669666636325
            ],
            [
              74.53592933677841,
              40.95989641896162
            ],
            [
              74.57681750386543,
              40.95947028849759
            ],
            [
              74.71313979439286,
              40.938312080329325
            ],
            [
              74.81624364021621,
              40.91394318419505
            ],
            [
              74.87096482323639,
              40.93812981683466
            ],
            [
              74.91071452271105,
              40.94681381366718
            ],
            [
              74.95193071982952,
              40.94951753447538
            ],
            [
              74.99306002959652,
              40.94613907149808
            ],
            [
              75.15229258230269,
              40.919985928642326
            ],
            [
              75.21848557010549,
              40.89417062424692
            ],
            [
              75.26391884586337,
              40.86045260507898
            ],
            [
              75.29423488425671,
              40.81807287525254
            ],
            [
              75.30612959861783,
              40.77570521200522
            ],
            [
              75.50127871300904,
              40.86647879779332
            ],
            [
              75.55672886887797,
              40.88441792972012
            ],
            [
              75.69075118323696,
              40.89381899848556
            ],
            [
              75.7320348650205,
              40.8898979113214
            ],
            [
              75.78192815916718,
              40.87815827160934
            ],
            [
              75.81131901634936,
              40.87713121604905
            ],
            [
              75.88788447124763,
              40.88608523994429
            ],
            [
              75.92554039385315,
              40.90611727038077
            ],
            [
              75.98126347543912,
              40.92774344157627
            ],
            [
              76.09751629098146,
              41.00091823861009
            ],
            [
              76.15364542533463,
              41.0181939400615
            ],
            [
              76.20028936514389,
              41.02300511936145
            ],
            [
              76.2081020149203,
              41.07487993532584
            ],
            [
              76.08918613906289,
              41.09160945858514
            ],
            [
              76.02987353342394,
              41.1071454242391
            ],
            [
              75.97901393052446,
              41.134989325579724
            ],
            [
              75.94422563943037,
              41.16876624738061
            ],
            [
              75.894934730634,
              41.19776648763018
            ],
            [
              75.86788623300036,
              41.22421265388791
            ],
            [
              75.84848788676113,
              41.25243488364683
            ],
            [
              75.81269001017705,
              41.27999598277813
            ],
            [
              75.79028014796283,
              41.30681968524996
            ],
            [
              75.77520545548515,
              41.33641728654075
            ],
            [
              75.76754531273546,
              41.3835263605171
            ],
            [
              75.77832949050298,
              41.43028761790305
            ],
            [
              75.82147768992807,
              41.50015586592373
            ],
            [
              75.84406517081189,
              41.52578383938146
            ],
            [
              75.88897461316068,
              41.55708671923909
            ],
            [
              75.92469544218518,
              41.572096055276106
            ],
            [
              75.96355927417471,
              41.58175880653327
            ],
            [
              76.21325814800409,
              41.60665367580611
            ],
            [
              76.2094860462967,
              41.675921302684735
            ],
            [
              76.21935247477602,
              41.708277531246615
            ],
            [
              76.23652177677548,
              41.7377459407694
            ],
            [
              76.20752576591124,
              41.74803933963654
            ],
            [
              76.08895406733505,
              41.7433436782768
            ],
            [
              76.04317992435894,
              41.74513793546055
            ],
            [
              75.9935050022613,
              41.75566640408193
            ],
            [
              75.92445206122736,
              41.76023870704034
            ],
            [
              75.86529798193473,
              41.777452322998144
            ],
            [
              75.81530742436227,
              41.80674203063627
            ],
            [
              75.77876526794317,
              41.84560624411821
            ],
            [
              75.75882407689234,
              41.89072036439391
            ],
            [
              75.75664250667838,
              41.95246502199304
            ],
            [
              75.75217804652912,
              41.96304808823079
            ],
            [
              75.70792502166131,
              41.98288589230034
            ],
            [
              75.65594842084867,
              42.014081344086286
            ],
            [
              75.61636579956526,
              42.05179957876835
            ],
            [
              75.55754512088451,
              42.05458952590324
            ]
          ]
        ]
      },
      "properties": {
        "name": "Route 18.0km Route Corridor",
        "buffer_km": 18.0,
        "buffer_meters": 18000.0,
        "point_count": 29016
      }
    }
  ]
}