{
  "type": "FeatureCollection",
  "features": [
    {
      "type": "Feature",
      "geometry": {
        "type": "Polygon",
        "coordinates": [
          [
            [
              -5.82596237163248,
              57.628137594187834
            ],
            [
              -5.875166671702724,
              57.67279168702048
            ],
            [
              -5.891177838500351,
              57.70369035386587
            ],
            [
              -5.905830046826297,
              57.75354344166967
            ],
            [
              -5.899091395909954,
              57.801161685293344
            ],
            [
              -5.866535878934116,
              57.84564466673678
            ],
            [
              -5.831767070626647,
              57.871610433823655
            ],
            [
              -5.788054679362978,
              57.89341720297407
            ],
            [
              -5.737103114985024,
              57.91020720719291
            ],
            [
              -5.680910687229001,
              57.92131885769478
            ],
            [
              -5.591671414346117,
              57.926445911299204
            ],
            [
              -5.532301305178223,
              57.92197327294856
            ],
            [
              -5.460397920239641,
              57.91072247674668
            ],
            [
              -5.437245053102228,
              57.960276285051776
            ],
            [
              -5.411705924693657,
              57.98822964184203
            ],
            [
              -5.3858709847080055,
              58.00709056230221
            ],
            [
              -5.447702708740021,
              58.02330070197759
            ],
            [
              -5.519868956016276,
              58.05425514398704
            ],
            [
              -5.589432946009522,
              58.10139497428055
            ],
            [
              -5.615947548168729,
              58.1282742776539
            ],
            [
              -5.641602541061942,
              58.173179494162405
            ],
            [
              -5.646518265555105,
              58.21896773101387
            ],
            [
              -5.626845011614665,
              58.26364048695232
            ],
            [
              -5.584083358281381,
              58.303590817237314
            ],
            [
              -5.497974571298772,
              58.352072625807565
            ],
            [
              -5.425418187700299,
              58.377160206229874
            ],
            [
              -5.311160825409319,
              58.40152283259416
            ],
            [
              -5.180591664075331,
              58.40753027381367
            ],
            [
              -5.037955164052361,
              58.49523364525017
            ],
            [
              -4.985726678979103,
              58.513588554233934
            ],
            [
              -4.908396273265868,
              58.53180919202499
            ],
            [
              -4.851177655819983,
              58.53798011205665
            ],
            [
              -4.792753996459093,
              58.53838433761338
            ],
            [
              -4.674333538880999,
              58.52738099296839
            ],
            [
              -4.599326980414187,
              58.51083568082329
            ],
            [
              -4.496073578821241,
              58.474640082900336
            ],
            [
              -4.4082280359047346,
              58.41786351027385
            ],
            [
              -4.359362017666822,
              58.349012679751844
            ],
            [
              -4.352186513496601,
              58.31852792150712
            ],
            [
              -4.356102915592386,
              58.28787956186708
            ],
            [
              -4.382296564951928,
              58.24401008648263
            ],
            [
              -4.419365823909813,
              58.213166854177835
            ],
            [
              -4.425966468130461,
              58.153957107925386
            ],
            [
              -4.372740684890854,
              58.103588329217715
            ],
            [
              -4.313065885312624,
              58.05884930940992
            ],
            [
              -4.290773594751604,
              58.02854895758146
            ],
            [
              -4.280394180391924,
              57.99649409061894
            ],
            [
              -4.282316736738254,
              57.963985183507475
            ],
            [
              -4.293169297412538,
              57.93829989465194
            ],
            [
              -4.272163182706626,
              57.887428232397056
            ],
            [
              -4.280182957280678,
              57.841368755331665
            ],
            [
              -4.323337720899243,
              57.785515205681236
            ],
            [
              -4.357911500425939,
              57.759790358480664
            ],
            [
              -4.394780508974157,
              57.74104053398644
            ],
            [
              -4.371622549098891,
              57.69695092564917
            ],
            [
              -4.30609178488172,
              57.65972827089547
            ],
            [
              -4.261859969214013,
              57.62044453914833
            ],
            [
              -4.240057736906705,
              57.5760724260067
            ],
            [
              -4.238893603557689,
              57.54542764876596
            ],
            [
              -4.243744786368831,
              57.52059574674663
            ],
            [
              -4.259063127912044,
              57.49051758850056
            ],
            [
              -4.374345348284343,
              57.36009810984426
            ],
            [
              -4.374511786096339,
              57.308176604417
            ],
            [
              -4.344004333059667,
              57.278912524111036
            ],
            [
              -4.318914650896249,
              57.233687639551114
            ],
            [
              -4.314457237283446,
              57.202749983311996
            ],
            [
              -4.321063079684287,
              57.17168466229386
            ],
            [
              -4.227265707785813,
              57.16106432267361
            ],
            [
              -4.152463960269896,
              57.13795686163505
            ],
            [
              -4.112672706302114,
              57.12012188069699
            ],
            [
              -4.07532271965035,
              57.09674074963002
            ],
            [
              -4.036365605386653,
              57.05549776315918
            ],
            [
              -4.020561619506356,
              57.00992472342855
            ],
            [
              -4.023573316310433,
              56.97898837570254
            ],
            [
              -4.04807169210449,
              56.934580658048404
            ],
            [
              -4.090643821653601,
              56.892999199626026
            ],
            [
              -4.0889393780030545,
              56.867427829836366
            ],
            [
              -4.0975843039696604,
              56.83586343302115
            ],
            [
              -4.1273368803496595,
              56.79567996369324
            ],
            [
              -4.0793437321307415,
              56.77087260462831
            ],
            [
              -4.034736847614775,
              56.73119866395175
            ],
            [
              -4.004496847449213,
              56.6854926678961
            ],
            [
              -3.998081205681142,
              56.64000223642403
            ],
            [
              -4.023755433088204,
              56.5492681398583
            ],
            [
              -4.059943692237836,
              56.5066684946172
            ],
            [
              -4.095758194678454,
              56.48226041422463
            ],
            [
              -4.139386754835905,
              56.46213269866633
            ],
            [
              -4.185521213343046,
              56.448025225494746
            ],
            [
              -4.222900080474948,
              56.42693970115517
            ],
            [
              -4.26766474538814,
              56.40964192108885
            ],
            [
              -4.317423163323859,
              56.3972483812136
            ],
            [
              -4.440199354881374,
              56.3815461453239
            ],
            [
              -4.465116507619269,
              56.35404008399533
            ],
            [
              -4.500125360135915,
              56.32900408414071
            ],
            [
              -4.571960663208299,
              56.298227207508404
            ],
            [
              -4.651992552045562,
              56.28177301913627
            ],
            [
              -4.737138022068622,
              56.27889099667043
            ],
            [
              -4.820152752343494,
              56.2898258174845
            ],
            [
              -4.893967740932827,
              56.31364629906416
            ],
            [
              -4.952271413434495,
              56.34832211855594
            ],
            [
              -4.979974403268524,
              56.376038883625846
            ],
            [
              -4.997726258228954,
              56.40719800915083
            ],
            [
              -5.048599502168446,
              56.43638993017646
            ],
            [
              -5.078196551260016,
              56.46379607083252
            ],
            [
              -5.103078886504602,
              56.50957316427531
            ],
            [
              -5.104701328375433,
              56.546695179026415
            ],
            [
              -5.139459803212996,
              56.567954080740925
            ],
            [
              -5.22137315989445,
              56.58250878597085
            ],
            [
              -5.291643402568062,
              56.60927851026116
            ],
            [
              -5.3294339115202165,
              56.63286321910982
            ],
            [
              -5.377000839085121,
              56.677547763398124
            ],
            [
              -5.39547123796624,
              56.706098670194066
            ],
            [
              -5.403951334307767,
              56.736043578174616
            ],
            [
              -5.402119904087373,
              56.76633244575049
            ],
            [
              -5.389270491398142,
              56.80096717093224
            ],
            [
              -5.399057854988757,
              56.84355760370129
            ],
            [
              -5.39295920505533,
              56.87452564277833
            ],
            [
              -5.363827742153456,
              56.9183466971254
            ],
            [
              -5.270729736237656,
              56.98503003540394
            ],
            [
              -5.255831296196823,
              57.009081952561964
            ],
            [
              -5.218893077079503,
              57.04271882749282
            ],
            [
              -5.294054918136918,
              57.0400869036117
            ],
            [
              -5.383306747220595,
              57.04743954422246
            ],
            [
              -5.434487737820827,
              57.05710362904093
            ],
            [
              -5.494600671195602,
              57.07705805971401
            ],
            [
              -5.581010561055183,
              57.09406747732162
            ],
            [
              -5.6287894446329485,
              57.109494846005475
            ],
            [
              -5.670497690547563,
              57.12947919610777
            ],
            [
              -5.7528514203347925,
              57.17765089836659
            ],
            [
              -5.791240129325003,
              57.20843860810409
            ],
            [
              -5.821834428812201,
              57.25261869828439
            ],
            [
              -5.82853293814755,
              57.283933461717965
            ],
            [
              -5.823882663304834,
              57.31535699987732
            ],
            [
              -5.796070958684992,
              57.36008882538835
            ],
            [
              -5.7547429683174105,
              57.39278935469192
            ],
            [
              -5.7443893461979485,
              57.45051271355326
            ],
            [
              -5.732018895236449,
              57.48130279822426
            ],
            [
              -5.708767221845991,
              57.51021196788887
            ],
            [
              -5.672563038733947,
              57.537827266633144
            ],
            [
              -5.732549197381425,
              57.55789031319415
            ],
            [
              -5.774567890691321,
              57.58007102794366
            ],
            [
              -5.8077859202641395,
              57.60621585634969
            ],
            [
              -5.82596237163248,
              57.628137594187834
            ]
          ],
          [
            [
              -5.034503405362728,
              57.451731289230295
            ],
            [
              -5.043072488263747,
              57.433116311916635
            ],
            [
              -4.977005320349078,
              57.447747671287345
            ],
            [
              -4.990343163795062,
              57.475292644829416
            ],
            [
              -4.994015332256485,
              57.507851375822504
            ],
            [
              -4.985465724406534,
              57.54014402392227
            ],
            [
              -4.967501462173643,
              57.56763954885346
            ],
            [
              -4.981664395947202,
              57.590645351752805
            ],
            [
              -4.990012554435023,
              57.62210152727488
            ],
            [
              -5.006717526750535,
              57.63264682542874
            ],
            [
              -5.001401987772183,
              57.514414327063825
            ],
            [
              -5.011396490015683,
              57.48323059378294
            ],
            [
              -5.034503405362728,
              57.451731289230295
            ]
          ]
        ]
      },
      "properties": {
        "name": "Route 18.0km Route Corridor",
        "buffer_km": 18.0,
        "buffer_meters": 18000.0,
        "point_count": 8475
      }
    }
  ]
}