{
  "type": "FeatureCollection",
  "features": [
    {
      "type": "Feature",
      "geometry": {
        "type": "Polygon",
        "coordinates": [
          [
            [
              -108.24001481965568,
              37.55004875570562
            ],
            [
              -108.21915471046603,
              37.63334481267927
            ],
            [
              -108.20590447447896,
              37.66163557540648
            ],
            [
              -108.18618945804882,
              37.68756155739762
            ],
            [
              -108.18145449781257,
              37.72061789730091
            ],
            [
              -108.1591642936358,
              37.76639552596171
            ],
            [
              -108.11248279027629,
              37.81330831468021
            ],
            [
              -108.0668964756172,
              37.84376616243844
            ],
            [
              -107.97723076401743,
              37.872608419046024
            ],
            [
              -107.93165037525304,
              37.89506804751134
            ],
            [
              -107.86055648271581,
              37.91340438003119
            ],
            [
              -107.81678810994175,
              37.94724873831285
            ],
            [
              -107.76223947788623,
              37.96933160006416
            ],
            [
              -107.7223046678771,
              37.976462518118254
            ],
            [
              -107.69483702892708,
              37.97745861797024
            ],
            [
              -107.66687071322603,
              37.98754622963925
            ],
            [
              -107.62696312449746,
              37.99592400074313
            ],
            [
              -107.57025402806538,
              37.99662016619246
            ],
            [
              -107.51771023571212,
              38.00893457773511
            ],
            [
              -107.44964634741113,
              38.01395960056505
            ],
            [
              -107.37036078497383,
              38.10688115869073
            ],
            [
              -107.3456386342189,
              38.128036415380755
            ],
            [
              -107.27372465905775,
              38.16650295507894
            ],
            [
              -107.19183729905374,
              38.19975223696332
            ],
            [
              -107.16107675143901,
              38.2234323793324
            ],
            [
              -107.12705083201156,
              38.240524472013405
            ],
            [
              -107.0894349920019,
              38.25203525810674
            ],
            [
              -107.03650080046154,
              38.261853130830865
            ],
            [
              -107.00319105124957,
              38.3041194166893
            ],
            [
              -106.95586710659,
              38.33602980175441
            ],
            [
              -106.89279695441405,
              38.3562248032543
            ],
            [
              -106.85131741323262,
              38.377879045139196
            ],
            [
              -106.81476951803646,
              38.388847585772766
            ],
            [
              -106.74366209301432,
              38.395407290727604
            ],
            [
              -106.69683003922609,
              38.39023223485748
            ],
            [
              -106.65917754111199,
              38.43067354389825
            ],
            [
              -106.61077799375651,
              38.459478261044175
            ],
            [
              -106.5537814516994,
              38.47592905858812
            ],
            [
              -106.51344005038226,
              38.47927594986627
            ],
            [
              -106.48129600141235,
              38.477729225265804
            ],
            [
              -106.48235314453143,
              38.53454368120931
            ],
            [
              -106.46995749762735,
              38.57999850982714
            ],
            [
              -106.45272143907424,
              38.60794661130881
            ],
            [
              -106.41249625369798,
              38.64537020871347
            ],
            [
              -106.39796834025313,
              38.668123911342676
            ],
            [
              -106.40735254703085,
              38.710474518971644
            ],
            [
              -106.43186627326713,
              38.747295750109004
            ],
            [
              -106.44467203275538,
              38.79341408616257
            ],
            [
              -106.43997526577905,
              38.84046577933162
            ],
            [
              -106.41677723324219,
              38.88614599740448
            ],
            [
              -106.45140488032644,
              38.907586252564876
            ],
            [
              -106.47672696733,
              38.93130217430565
            ],
            [
              -106.5212934873993,
              38.998736086803866
            ],
            [
              -106.53913165365289,
              39.04486654007954
            ],
            [
              -106.54006111028444,
              39.08378300861598
            ],
            [
              -106.57633484380098,
              39.14769883458209
            ],
            [
              -106.58332467792258,
              39.195334853057666
            ],
            [
              -106.57784284992819,
              39.22707856660242
            ],
            [
              -106.56298904450998,
              39.25952871657856
            ],
            [
              -106.55499916343831,
              39.29264452396511
            ],
            [
              -106.53581829923799,
              39.32695727844956
            ],
            [
              -106.54065043136474,
              39.37812342866767
            ],
            [
              -106.53690585585659,
              39.4098191092979
            ],
            [
              -106.50838228378421,
              39.47421686651743
            ],
            [
              -106.4898297763112,
              39.50203271787338
            ],
            [
              -106.46470697206907,
              39.52656273630794
            ],
            [
              -106.43684661439926,
              39.547826600031556
            ],
            [
              -106.39431092395371,
              39.56938247445489
            ],
            [
              -106.35838240397766,
              39.59646648839779
            ],
            [
              -106.29386905902965,
              39.63329298359871
            ],
            [
              -106.25706465136642,
              39.64718681889121
            ],
            [
              -106.21823457484075,
              39.67184616273114
            ],
            [
              -106.18099250609858,
              39.6862093020209
            ],
            [
              -106.10643493877409,
              39.701382044271625
            ],
            [
              -106.0295852449119,
              39.70419042267221
            ],
            [
              -105.977901516655,
              39.713172788073436
            ],
            [
              -105.91482549788917,
              39.71015228206326
            ],
            [
              -105.87467616546726,
              39.7000721723277
            ],
            [
              -105.82137166355412,
              39.673873864849845
            ],
            [
              -105.76861528246413,
              39.6340049717131
            ],
            [
              -105.74673654011576,
              39.60667630154917
            ],
            [
              -105.73437011248069,
              39.581688273163024
            ],
            [
              -105.6393942927169,
              39.54881500391271
            ],
            [
              -105.60617890888346,
              39.5276648772937
            ],
            [
              -105.57691187172273,
              39.498881940347104
            ],
            [
              -105.52730808113107,
              39.467601190493234
            ],
            [
              -105.47006779527081,
              39.49155724224373
            ],
            [
              -105.42443427201204,
              39.50299874467211
            ],
            [
              -105.3903203832724,
              39.5068078886658
            ],
            [
              -105.3655005606252,
              39.52633155841471
            ],
            [
              -105.31835825991864,
              39.549386766204016
            ],
            [
              -105.2880794264365,
              39.581997400807055
            ],
            [
              -105.23664440387705,
              39.61913208670853
            ],
            [
              -105.1973695005288,
              39.6356381319578
            ],
            [
              -105.15280557430411,
              39.64665041216529
            ],
            [
              -105.09180449369103,
              39.653102387399855
            ],
            [
              -105.03101432073082,
              39.645556017916995
            ],
            [
              -104.97570425907087,
              39.62466545640257
            ],
            [
              -104.9306595266307,
              39.592240582561445
            ],
            [
              -104.90829756040829,
              39.565567699733045
            ],
            [
              -104.89310382816447,
              39.53602881647821
            ],
            [
              -104.88493197921794,
              39.488855173277784
            ],
            [
              -104.88952008482235,
              39.45725963866329
            ],
            [
              -104.90805522704298,
              39.41731931975543
            ],
            [
              -104.91492973688804,
              39.3821767663152
            ],
            [
              -104.92859946346839,
              39.353840059540495
            ],
            [
              -104.96255627123763,
              39.31047141361875
            ],
            [
              -104.9902076732148,
              39.28699104148609
            ],
            [
              -105.02320990933397,
              39.26814940489693
            ],
            [
              -105.08951831295394,
              39.24524404055309
            ],
            [
              -105.09035660728891,
              39.20234501204173
            ],
            [
              -105.10045549624841,
              39.171537738564375
            ],
            [
              -105.12949187397395,
              39.129654849454134
            ],
            [
              -105.15732141981103,
              39.105983347013655
            ],
            [
              -105.16301808342918,
              39.056924221828396
            ],
            [
              -105.17690476488356,
              39.026520922393374
            ],
            [
              -105.19821984441451,
              38.99886026608978
            ],
            [
              -105.22611425738465,
              38.97503364798881
            ],
            [
              -105.25948261920585,
              38.95598018842826
            ],
            [
              -105.36223501382658,
              38.92335029344431
            ],
            [
              -105.42359488577183,
              38.91790880952102
            ],
            [
              -105.46447253146826,
              38.92225171761193
            ],
            [
              -105.542383292414,
              38.94672442541969
            ],
            [
              -105.57515350398158,
              38.96282818184931
            ],
            [
              -105.63918609162567,
              39.0120188174592
            ],
            [
              -105.65916145788697,
              39.03771495626889
            ],
            [
              -105.67010503712191,
              39.05953107448151
            ],
            [
              -105.79793677475509,
              39.13238190570344
            ],
            [
              -105.83163308936416,
              39.1612071039334
            ],
            [
              -105.8544510684118,
              39.17345808912875
            ],
            [
              -105.88467256567351,
              39.19675329678962
            ],
            [
              -105.91714508443327,
              39.2393775407402
            ],
            [
              -105.9293394993142,
              39.27390023347996
            ],
            [
              -106.00577954168317,
              39.30286567562856
            ],
            [
              -106.04061076323242,
              39.324229024127185
            ],
            [
              -106.07247857849065,
              39.31570631859706
            ],
            [
              -106.08843700355331,
              39.272034858983325
            ],
            [
              -106.11314812395257,
              39.23996986221021
            ],
            [
              -106.1278271435288,
              39.20625591318329
            ],
            [
              -106.11900564890846,
              39.16430989777293
            ],
            [
              -106.11218660184102,
              39.15049456956726
            ],
            [
              -106.06743688085466,
              39.10996871596312
            ],
            [
              -106.0382670161287,
              39.0732964835463
            ],
            [
              -106.02141844459808,
              39.04308460110572
            ],
            [
              -105.98474144259679,
              39.00172937236242
            ],
            [
              -105.92870461479902,
              38.88399172157315
            ],
            [
              -105.92212697144186,
              38.83652215542583
            ],
            [
              -105.92774818241445,
              38.804930516293936
            ],
            [
              -105.95051185421879,
              38.760832449919725
            ],
            [
              -105.95064892182486,
              38.714298793228615
            ],
            [
              -105.96079189911204,
              38.68291728591207
            ],
            [
              -105.97822997457727,
              38.59159846818629
            ],
            [
              -106.00972318165837,
              38.5286922889004
            ],
            [
              -106.05492957640053,
              38.47199551927319
            ],
            [
              -106.03599860932403,
              38.4275990135048
            ],
            [
              -106.02825667739349,
              38.39487423993646
            ],
            [
              -106.02916942797755,
              38.361594903553645
            ],
            [
              -106.04157627823373,
              38.31550646581544
            ],
            [
              -106.06352931783496,
              38.27136939815099
            ],
            [
              -106.0867923535525,
              38.245554818309074
            ],
            [
              -106.11595591342098,
              38.22378977995602
            ],
            [
              -106.14990881428565,
              38.2068999604192
            ],
            [
              -106.18514758622838,
              38.196101897609644
            ],
            [
              -106.22734673172451,
              38.16838938700473
            ],
            [
              -106.31117659911662,
              38.13294467748137
            ],
            [
              -106.35123462816527,
              38.12384157023582
            ],
            [
              -106.41144339320032,
              38.1193164659854
            ],
            [
              -106.46274915201168,
              38.04833539157379
            ],
            [
              -106.50795786291899,
              38.01543959882969
            ],
            [
              -106.54408592108061,
              38.000060836276276
            ],
            [
              -106.60367056610072,
              37.98834593936018
            ],
            [
              -106.69022911440516,
              37.98796232451977
            ],
            [
              -106.73020458448995,
              37.99125883404804
            ],
            [
              -106.77476398456697,
              38.002989169154105
            ],
            [
              -106.83080138372071,
              37.96862796748544
            ],
            [
              -106.8668717820661,
              37.95525443179658
            ],
            [
              -106.90137086044925,
              37.947673570999626
            ],
            [
              -106.93982738892448,
              37.932153814147455
            ],
            [
              -106.97455161028611,
              37.91228218721748
            ],
            [
              -107.01330481765287,
              37.898744089157205
            ],
            [
              -107.03764626852868,
              37.8692088791823
            ],
            [
              -107.08102447622893,
              37.838133788338894
            ],
            [
              -107.11079285158841,
              37.81027464891744
            ],
            [
              -107.17775422594111,
              37.76732672184445
            ],
            [
              -107.21505710650801,
              37.73342109769669
            ],
            [
              -107.26662172449323,
              37.70694742921955
            ],
            [
              -107.31912383236157,
              37.69068396322257
            ],
            [
              -107.38128593131287,
              37.68592777237033
            ],
            [
              -107.40316932229406,
              37.667833192368
            ],
            [
              -107.43516331263761,
              37.64952411141168
            ],
            [
              -107.48990249958302,
              37.6320176146662
            ],
            [
              -107.54863981322197,
              37.627678543380135
            ],
            [
              -107.60665739191977,
              37.63692235712886
            ],
            [
              -107.67160089038427,
              37.60921690712055
            ],
            [
              -107.72717247802873,
              37.59674819156766
            ],
            [
              -107.78028928824823,
              37.56866312525978
            ],
            [
              -107.80451809887829,
              37.54159374810656
            ],
            [
              -107.77942340030937,
              37.49988329167594
            ],
            [
              -107.7704706617037,
              37.45756594799563
            ],
            [
              -107.73550216179595,
              37.42307205827432
            ],
            [
              -107.709412032657,
              37.380286617087805
            ],
            [
              -107.70122289545074,
              37.34918194695343
            ],
            [
              -107.70079657374512,
              37.31739952318095
            ],
            [
              -107.71464523331856,
              37.271123031641224
            ],
            [
              -107.7446836238849,
              37.230046239023956
            ],
            [
              -107.77246833417682,
              37.20732039852451
            ],
            [
              -107.82312199906904,
              37.182386350749
            ],
            [
              -107.88061787108211,
              37.17026362887738
            ],
            [
              -107.92032894294005,
              37.1698596868982
            ],
            [
              -107.95937899593851,
              37.175650094237675
            ],
            [
              -108.07783615916696,
              37.216432795171414
            ],
            [
              -108.10967917608305,
              37.23468952802489
            ],
            [
              -108.13655134028208,
              37.25749648063047
            ],
            [
              -108.16540233760145,
              37.29834389766254
            ],
            [
              -108.17835060564528,
              37.343571245403375
            ],
            [
              -108.2167655589174,
              37.38434944148594
            ],
            [
              -108.2361209133593,
              37.42787083185393
            ],
            [
              -108.2400923231434,
              37.458551930911064
            ],
            [
              -108.24001481965568,
              37.55004875570562
            ]
          ]
        ]
      },
      "properties": {
        "name": "colorado-trail 18.0km Route Corridor",
        "buffer_km": 18.0,
        "buffer_meters": 18000.0,
        "point_count": 10168
      }
    }
  ]
}